"","city","county_name","lat","lng","zips"
"1","La Quinta","Riverside",33.6537,-116.2785,"92253 92202 92247 92248"
"2","Saint Helena","Napa",38.5044,-122.4681,"94574"
"3","Burney","Shasta",40.8849,-121.6699,"96013"
"4","Kensington","Contra Costa",37.9084,-122.2805,"94708 94707"
"5","Upper Lake","Lake",39.1653,-122.9052,"95485"
"6","Pleasant Hill","Contra Costa",37.954,-122.0759,"94523"
"7","Leggett","Mendocino",39.8635,-123.7253,"95585"
"8","Pomona","Los Angeles",34.0585,-117.7625,"91766 91767 91768 91769"
"9","Fieldbrook","Humboldt",40.9722,-124.025,"95519"
"10","Oakdale","Stanislaus",37.762,-120.8463,"95361"
"11","Thermalito","Butte",39.4909,-121.6149,"95965"
"12","Knights Landing","Yolo",38.7979,-121.7176,"95645"
"13","Big Oak Flat","Tuolumne",37.8235,-120.2582,"95305"
"14","Guerneville","Sonoma",38.5137,-122.9894,"95446 95471"
"15","Upland","San Bernardino",34.1178,-117.6603,"91784 91786 91785"
"16","Riverbank","Stanislaus",37.7269,-120.9406,"95367"
"17","Waterloo","San Joaquin",38.0365,-121.1846,"95215"
"18","Montrose","Los Angeles",34.2064,-118.2242,"91020"
"19","Industry","Los Angeles",34.0175,-117.9268,"91748 91746 91789 91745 91744 91714 91715"
"20","Jacumba Hot Springs","San Diego",32.6277,-116.1827,"91934"
"21","Amador City","Amador",38.4189,-120.8236,"95601 95685"
"22","Brea","Orange",33.9255,-117.8654,"92821 92823 92822"
"23","Bella Vista","Shasta",40.6502,-122.245,"96008 96003"
"24","San Jacinto","Riverside",33.797,-116.9915,"92583 92582 92581"
"25","Redding","Shasta",40.5698,-122.365,"96002 96003 96001"
"26","Exeter","Tulare",36.294,-119.1459,"93221"
"27","Goshen","Tulare",36.3518,-119.421,"93291 93227"
"28","Templeton","San Luis Obispo",35.556,-120.7182,"93446 93465"
"29","East Nicolaus","Sutter",38.91,-121.5443,"95659"
"30","Hercules","Contra Costa",38.0064,-122.2564,"94547 94553"
"31","Johnsville","Plumas",39.7663,-120.713,"96103"
"32","Biola","Fresno",36.7999,-120.0212,"93606 93630"
"33","Moorpark","Ventura",34.2855,-118.877,"93021 93020"
"34","Windsor","Sonoma",38.5417,-122.8086,"95492"
"35","El Monte","Los Angeles",34.0739,-118.0291,"91732 91731 91733 91734 91735"
"36","Calistoga","Napa",38.5817,-122.5825,"94515"
"37","Bucks Lake","Plumas",39.8798,-121.1941,"95956"
"38","Wilseyville","Calaveras",38.3791,-120.5146,"95257"
"39","Igo","Shasta",40.5054,-122.5417,"96047"
"40","Hat Creek","Shasta",40.8101,-121.4809,"96040"
"41","Mesa Verde","Riverside",33.5958,-114.7319,"92225"
"42","Sebastopol","Sonoma",38.4001,-122.8277,"95472 95473"
"43","Avery","Calaveras",38.1939,-120.379,"95233 95224"
"44","McKittrick","Kern",35.2981,-119.6249,"93251"
"45","Clearlake","Lake",38.959,-122.6331,"95422 95424"
"46","Sawyers Bar","Siskiyou",41.2974,-123.1303,"96027"
"47","Irwin","Merced",37.3969,-120.8499,"95324"
"48","Burbank","Los Angeles",34.188,-118.3234,"91506 91504 91505 91502 91501 91503 91507 91508 91510 91521 91522 91523 91526"
"49","Discovery Bay","Contra Costa",37.9064,-121.5985,"94505"
"50","North San Juan","Nevada",39.3719,-121.106,"95960"
"51","Rancho Santa Margarita","Orange",33.6318,-117.5989,"92679 92688"
"52","Komandorski Village","Alameda",37.716,-121.9088,"94568"
"53","Casa Conejo","Ventura",34.1848,-118.9445,"91320"
"54","South Whittier","Los Angeles",33.9336,-118.0311,"90604 90605"
"55","Manhattan Beach","Los Angeles",33.8895,-118.3972,"90266 90267"
"56","Green Valley","Los Angeles",34.6172,-118.4059,"91390"
"57","Orleans","Humboldt",41.3015,-123.5412,"95556"
"58","Quincy","Plumas",39.931,-120.9548,"95971"
"59","Ignacio","Marin",38.0702,-122.5386,"94949"
"60","Rolling Hills","Los Angeles",33.76,-118.3471,"90274"
"61","Leona Valley","Los Angeles",34.6147,-118.299,"93551"
"62","Valley Ford","Sonoma",38.3246,-122.9148,"94952 94922"
"63","Kelso","San Bernardino",35.0125,-115.6536,"92332"
"64","Pope Valley","Napa",38.6152,-122.4278,"94574"
"65","Montgomery Creek","Shasta",40.8415,-121.9215,"96065 96084"
"66","Orangevale","Sacramento",38.688,-121.2208,"95662"
"67","Ahwahnee","Madera",37.3653,-119.7194,"93601 93644"
"68","Hacienda Heights","Los Angeles",33.997,-117.9728,"91745 91716"
"69","Vernon","Los Angeles",34.0019,-118.2106,"90058"
"70","Corning","Tehama",39.9282,-122.182,"96021"
"71","Maywood","Los Angeles",33.9885,-118.1877,"90270"
"72","La Habra Heights","Los Angeles",33.9603,-117.9509,"90631"
"73","Thousand Palms","Riverside",33.815,-116.3545,"92276"
"74","Angwin","Napa",38.5776,-122.4512,"94508"
"75","Centerville","Fresno",36.7361,-119.4961,"93657"
"76","East Palo Alto","San Mateo",37.4671,-122.1347,"94303"
"77","Mount Hermon","Santa Cruz",37.0511,-122.0532,"95018 95066 95041"
"78","Forestville","Sonoma",38.4825,-122.8899,"95436"
"79","South San Gabriel","Los Angeles",34.0489,-118.0962,"91770"
"80","Valley Acres","Kern",35.2087,-119.4106,"93268"
"81","Westhaven","Humboldt",41.036,-124.1112,"95570"
"82","Del Mar","San Diego",32.9633,-117.2627,"92014"
"83","Lakewood","Los Angeles",33.8471,-118.1222,"90715 90712 90713 90711 90714"
"84","Interlaken","Santa Cruz",36.9505,-121.7363,"95076"
"85","Irvine","Orange",33.6772,-117.7738,"92617 92614 92612 92618 92620 92602 92603 92604 92606 92616 92619 92623 92650 92697 92698"
"86","Woodacre","Marin",38.0052,-122.6384,"94973"
"87","Windsor Hills","Los Angeles",33.9889,-118.354,"90043"
"88","Miranda","Humboldt",40.2289,-123.8173,"95553"
"89","Greenview","Siskiyou",41.5471,-122.9185,"96037"
"90","Nevada City","Nevada",39.2608,-121.0231,"95959"
"91","Sunset Beach","Orange",33.7164,-118.069,"90742"
"92","Big Lagoon","Humboldt",41.1592,-124.1303,"95570"
"93","Silver Lakes","San Bernardino",34.7519,-117.3431,"92342"
"94","Sunnymead","Riverside",33.94,-117.2437,"92553"
"95","Buckhorn","Amador",38.4532,-120.5354,"95666 95644"
"96","Topanga","Los Angeles",34.0964,-118.6053,"90290"
"97","Norco","Riverside",33.9253,-117.55,"92860"
"98","Knightsen","Contra Costa",37.9633,-121.6511,"94548 94513"
"99","Maxwell","Colusa",39.2771,-122.1946,"95955"
"100","Rocklin","Placer",38.8078,-121.2491,"95677 95765"
"101","Carmel Valley Village","Monterey",36.4824,-121.7198,"93924 93922"
"102","Cameron Park","El Dorado",38.6733,-120.9871,"95682 95672"
"103","Salinas","Monterey",36.6881,-121.6316,"93901 93905 93906 93902 93915"
"104","West Rancho Dominguez","Los Angeles",33.9057,-118.2682,"90248 90061 90059 90220"
"105","Poplar","Tulare",36.0533,-119.1432,"93258"
"106","Pinehurst","Fresno",36.6952,-119.0165,"93641"
"107","San Miguel","San Luis Obispo",35.7534,-120.6925,"93451"
"108","Goffs","San Bernardino",34.9192,-115.0628,"92332"
"109","Newark","Alameda",37.5204,-122.0312,"94560"
"110","Apple Valley","San Bernardino",34.5329,-117.2102,"92308 92307"
"111","Del Rosa","San Bernardino",34.1489,-117.2434,"92346"
"112","Bell Gardens","Los Angeles",33.9663,-118.155,"90201 90202"
"113","Lodi","San Joaquin",38.1218,-121.2933,"95240 95242"
"114","Montague","Siskiyou",41.7275,-122.5302,"96064"
"115","Foster City","San Mateo",37.5553,-122.2659,"94404"
"116","Orcutt","Santa Barbara",34.8668,-120.4269,"93455 93457"
"117","Ladera","San Mateo",37.3996,-122.1991,"94028"
"118","Vallejo","Solano",38.1134,-122.2359,"94592 94591 94589 94590"
"119","Vidal","San Bernardino",34.1189,-114.5102,"92280"
"120","Challenge","Yuba",39.4874,-121.2236,"95925"
"121","La Riviera","Sacramento",38.5684,-121.3544,"95827 95826"
"122","Indio","Riverside",33.7346,-116.2347,"92241 92201 92203"
"123","Jamul","San Diego",32.7184,-116.8709,"91978 91935 92022"
"124","Foresthill","Placer",39.0053,-120.8314,"95631"
"125","Rainbow","San Diego",33.4098,-117.1394,"92028"
"126","Redcrest","Humboldt",40.3987,-123.9474,"95569"
"127","Cromberg","Plumas",39.8684,-120.6905,"96103"
"128","Hodge","San Bernardino",34.8155,-117.1934,"92311"
"129","Tiburon","Marin",37.8853,-122.4636,"94920"
"130","Hesperia","San Bernardino",34.3974,-117.3144,"92345 92344 92340"
"131","Jamestown","Tuolumne",37.9572,-120.4111,"95327"
"132","Azusa","Los Angeles",34.1386,-117.9124,"91702 91010"
"133","Narod","San Bernardino",34.0581,-117.6845,"91762"
"134","Big Bear Lake","San Bernardino",34.243,-116.8955,"92315"
"135","Yosemite Lakes","Madera",37.1886,-119.7723,"93614"
"136","Morongo Valley","San Bernardino",34.0724,-116.5627,"92256"
"137","Concow","Butte",39.7733,-121.5196,"95965"
"138","Helendale","San Bernardino",34.7439,-117.3245,"92342"
"139","Fall River Mills","Shasta",41.0069,-121.4401,"96028"
"140","Emeryville","Alameda",37.8382,-122.2932,"94608 94662"
"141","Fairhaven","Humboldt",40.7884,-124.2014,"95564"
"142","Elverta","Sacramento",38.7185,-121.4455,"95626"
"143","Paradise Park","Santa Cruz",37.0063,-122.0425,"95060"
"144","Aspen Springs","Mono",37.55,-118.7087,"93546"
"145","Hollister","San Benito",36.8564,-121.3981,"95023 95024"
"146","Fair Oaks","Sacramento",38.6504,-121.2498,"95628"
"147","Vina","Tehama",39.9343,-122.0518,"96092"
"148","Brooktrails","Mendocino",39.4429,-123.3963,"95490"
"149","Whitethorn","Humboldt",40.0238,-123.9431,"95589"
"150","Meiners Oaks","Ventura",34.4505,-119.273,"93023"
"151","Paskenta","Tehama",39.8833,-122.5457,"96074 96029"
"152","Winter Gardens","San Diego",32.8376,-116.9269,"92021 92040"
"153","Tupman","Kern",35.2987,-119.3577,"93276"
"154","Cherokee","Butte",39.6514,-121.5345,"95965"
"155","Sand City","Monterey",36.6189,-121.8478,"93955"
"156","Rancho Santa Fe","San Diego",33.024,-117.1992,"92067"
"157","Buellton","Santa Barbara",34.6152,-120.1943,"93427"
"158","Waterford","Stanislaus",37.643,-120.7553,"95386"
"159","Silverado","Orange",33.7461,-117.637,"92676"
"160","Golden Hills","Kern",35.1512,-118.5024,"93561"
"161","Dorrington","Calaveras",38.2949,-120.2706,"95223"
"162","Standish","Lassen",40.3652,-120.4222,"96128"
"163","Loleta","Humboldt",40.6409,-124.2225,"95551"
"164","McKinleyville","Humboldt",40.9488,-124.0857,"95519"
"165","Cathedral City","Riverside",33.8363,-116.4662,"92241 92234 92235"
"166","Minkler","Fresno",36.7276,-119.4587,"93657"
"167","Pike","Sierra",39.4278,-120.9996,"95960"
"168","Pine Flat","Tulare",35.8737,-118.6427,"93207"
"169","Rolinda","Fresno",36.7352,-119.9618,"93706"
"170","Hinkley","San Bernardino",34.9347,-117.1992,"92347"
"171","Dos Rios","Mendocino",39.7168,-123.3533,"95429"
"172","Weedpatch","Kern",35.2369,-118.9123,"93307 93241"
"173","Cayucos","San Luis Obispo",35.4375,-120.8847,"93430"
"174","Fallbrook","San Diego",33.3693,-117.2259,"92028 92088"
"175","Emerald Bay","Orange",33.5525,-117.8092,"92651"
"176","Buena Park","Orange",33.8572,-118.0046,"90621 90620 90622 90624"
"177","Panorama Heights","Orange",33.7778,-117.7981,"92705"
"178","Trinidad","Humboldt",41.0589,-124.1434,"95570"
"179","Farmington","San Joaquin",37.9299,-121.0043,"95230"
"180","Mono Vista","Tuolumne",38.0124,-120.2697,"95370"
"181","Shore Acres","Contra Costa",38.0358,-121.9655,"94565"
"182","Saranap","Contra Costa",37.8878,-122.0761,"94595"
"183","Kelseyville","Lake",38.9704,-122.8327,"95451"
"184","Lakeport","Lake",39.0392,-122.9218,"95453"
"185","Castle Park","San Diego",32.6103,-117.0675,"91911"
"186","Omo Ranch","El Dorado",38.5813,-120.5733,"95684"
"187","Williams","Colusa",39.1489,-122.1373,"95987"
"188","West Athens","Los Angeles",33.9235,-118.3033,"90044 90047"
"189","Santa Ana Heights","Orange",33.6525,-117.8956,"92627"
"190","Pinedale","Fresno",36.8427,-119.7899,"93650"
"191","El Segundo","Los Angeles",33.9169,-118.4021,"90245"
"192","Forbestown","Butte",39.5301,-121.2689,"95941"
"193","Paso Robles","San Luis Obispo",35.6266,-120.691,"93446"
"194","Los Altos","Santa Clara",37.3685,-122.0965,"94022 94024 94023"
"195","Bakersfield","Kern",35.3528,-119.0354,"93306 93307 93304 93305 93301 93309 93314 93311 93313 93312 93302 93384 93385 93387 93389 93390"
"196","Black Point","Marin",38.1102,-122.5055,"94945"
"197","Cutler","Tulare",36.5263,-119.2884,"93615"
"198","San Bernardino","San Bernardino",34.1412,-117.2936,"92401 92407 92405 92408 92404 92411 92410 92346 92403 92406 92415 92418 92423 92427"
"199","Long Barn","Tuolumne",38.0956,-120.1285,"95335"
"200","June Lake","Mono",37.7677,-119.1022,"93529"
"201","Walnut Grove","Sacramento",38.2478,-121.528,"95690"
"202","Encinitas","San Diego",33.0492,-117.2613,"92007 92075 92024 92023"
"203","Rubidoux","Riverside",33.9961,-117.4056,"92509"
"204","Loomis","Placer",38.8093,-121.1955,"95650"
"205","Trowbridge","Sutter",38.9263,-121.5148,"95659 95674"
"206","Santa Fe Springs","Los Angeles",33.933,-118.0625,"90670 90671"
"207","Twain","Plumas",40.0355,-121.0404,"95984"
"208","Eldridge","Sonoma",38.3338,-122.5065,"95476 95442"
"209","Old Station","Shasta",40.6722,-121.4228,"96071"
"210","Paradise","Butte",39.7558,-121.6063,"95969 95967"
"211","Granite Bay","Placer",38.7601,-121.1714,"95746 95650"
"212","Covelo","Mendocino",39.8025,-123.2499,"95428"
"213","American Canyon","Napa",38.1798,-122.2583,"94503"
"214","El Centro","Imperial",32.7873,-115.5578,"92243 92244"
"215","Whittier","Los Angeles",33.9678,-118.0188,"90602 90603 90601 90606 90605 90607 90608 90609"
"216","Spring Garden","Plumas",39.9012,-120.7935,"95971"
"217","Pacheco","Contra Costa",37.9878,-122.07,"94553"
"218","Cowan Heights","Orange",33.7778,-117.7739,"92705"
"219","Millville","Shasta",40.5576,-122.1696,"96062 96073"
"220","East Orosi","Tulare",36.5481,-119.2599,"93647"
"221","Almonte","Marin",37.8899,-122.525,"94941"
"222","Eagleville","Modoc",41.319,-120.1146,"96110"
"223","Soda Springs","Nevada",39.3248,-120.3784,"95728"
"224","Pine Hills","Humboldt",40.7313,-124.1551,"95503"
"225","Washington","Nevada",39.3591,-120.7905,"95959 95986"
"226","Duarte","Los Angeles",34.1609,-117.9505,"91010 91009"
"227","Rockport","Mendocino",39.7388,-123.8161,"95488"
"228","Three Rivers","Tulare",36.4319,-118.8806,"93271 93237"
"229","Sanger","Fresno",36.6993,-119.5575,"93657"
"230","Chula Vista","San Diego",32.6281,-117.0144,"91911 91910 91913 91915 91914 91902 91908 91909 91912 91921"
"231","Indianola","Humboldt",40.8133,-124.0808,"95503 95524 95502"
"232","Mammoth Lakes","Mono",37.6273,-118.99,"93546"
"233","Dustin Acres","Kern",35.2159,-119.375,"93268"
"234","Jackson","Amador",38.3485,-120.7724,"95642"
"235","Di Giorgio","Kern",35.2527,-118.8515,"93203"
"236","Phoenix Lake","Tuolumne",38.0075,-120.309,"95370"
"237","Adelanto","San Bernardino",34.5868,-117.4411,"92301"
"238","China Lake Acres","Kern",35.6387,-117.7667,"93555"
"239","Vinton","Plumas",39.8043,-120.1783,"96135"
"240","Rio Del Mar","Santa Cruz",36.9607,-121.8807,"95003"
"241","Fort Jones","Siskiyou",41.6085,-122.841,"96032"
"242","Conejo","Fresno",36.5183,-119.719,"93662"
"243","Twentynine Palms","San Bernardino",34.1484,-116.0655,"92277 92278"
"244","Mount Laguna","San Diego",32.8711,-116.4247,"91948"
"245","Rail Road Flat","Calaveras",38.3168,-120.491,"95245 95248"
"246","Sutter","Sutter",39.1557,-121.7492,"95982"
"247","Cleone","Mendocino",39.4927,-123.7812,"95437"
"248","Caribou","Plumas",40.0762,-121.1615,"95984"
"249","Zayante","Santa Cruz",37.0888,-122.0414,"95018"
"250","Cupertino","Santa Clara",37.3167,-122.0465,"95014 95015 95108"
"251","Tennant","Siskiyou",41.5817,-121.9148,"96058"
"252","Terra Bella","Tulare",35.9567,-119.0328,"93270"
"253","Stratford","Kings",36.1885,-119.8223,"93266"
"254","Charter Oak","Los Angeles",34.1025,-117.8564,"91724"
"255","Dollar Point","Placer",39.1905,-120.1089,"96145"
"256","Edgemont","Riverside",33.9203,-117.2787,"92553"
"257","Palm Springs","Riverside",33.8012,-116.538,"92262 92264 92258 92263"
"258","Mettler","Kern",35.0635,-118.9729,"93313"
"259","Trona","San Bernardino",35.7627,-117.3728,"93562"
"260","Fullerton","Orange",33.8841,-117.9279,"92832 92835 92833 92831 92834 92836 92837 92838"
"261","Coto De Caza","Orange",33.5961,-117.5862,"92679"
"262","Applegate","Placer",39.0007,-120.9924,"95603"
"263","Lompoc","Santa Barbara",34.6617,-120.4714,"93436 93438"
"264","Tuttletown","Tuolumne",38.0003,-120.4503,"95370"
"265","East Richmond Heights","Contra Costa",37.945,-122.314,"94805"
"266","Victorville","San Bernardino",34.5277,-117.3537,"92395 92392 92394 92393"
"267","Desert Shores","Imperial",33.404,-116.0401,"92274"
"268","Hiouchi","Del Norte",41.7937,-124.0663,"95531"
"269","Idyllwild","Riverside",33.74,-116.7189,"92549"
"270","Crescent City","Del Norte",41.7728,-124.1902,"95531 95532"
"271","Riverdale Park","Stanislaus",37.6029,-121.0425,"95358"
"272","Mariposa","Mariposa",37.4873,-119.9682,"95338"
"273","East Oakdale","Stanislaus",37.7849,-120.8014,"95361"
"274","Anaheim","Orange",33.839,-117.8572,"92808 92806 92807 92804 92805 92802 92801 92803 92809 92812 92814 92815 92816 92817 92825 92850 92899"
"275","Coronado","San Diego",32.664,-117.16,"92155 92135 92118 92178"
"276","Laytonville","Mendocino",39.6715,-123.4945,"95454"
"277","Westend","San Bernardino",35.7069,-117.3923,"93562"
"278","Wasco","Kern",35.5938,-119.3673,"93280"
"279","Fillmore","Ventura",34.3989,-118.9181,"93015 93016"
"280","Delano","Kern",35.767,-119.2637,"93215"
"281","Campbell","Santa Clara",37.2803,-121.9543,"95008 95009 95011"
"282","Lynwood","Los Angeles",33.924,-118.2017,"90262"
"283","Winterhaven","Imperial",32.7372,-114.6378,"92283"
"284","Lake Almanor Peninsula","Plumas",40.2812,-121.1345,"96137"
"285","Hood","Sacramento",38.3693,-121.5155,"95639"
"286","Palm Desert","Riverside",33.7378,-116.3696,"92260 92211 92255"
"287","Temecula","Riverside",33.4928,-117.1315,"92590 92591 92592 92589 92593"
"288","Irwindale","Los Angeles",34.1121,-117.9637,"91706 91010"
"289","Los Gatos","Santa Clara",37.2307,-121.9564,"95032 95030 95036"
"290","Big Bend","Shasta",41.0109,-121.924,"96011"
"291","Arrowbear Lake","San Bernardino",34.2108,-117.0834,"92382"
"292","Clarksburg","Yolo",38.4193,-121.5416,"95612"
"293","Bonny Doon","Santa Cruz",37.0435,-122.1369,"95060"
"294","Tollhouse","Fresno",37.0188,-119.3993,"93667"
"295","Georgetown","El Dorado",38.9112,-120.8356,"95634"
"296","Mendota","Fresno",36.7555,-120.3777,"93640"
"297","Trinity Center","Trinity",40.9841,-122.7083,"96091"
"298","Benbow","Humboldt",40.0603,-123.7653,"95542"
"299","Newman","Stanislaus",37.3156,-121.0208,"95360"
"300","Furnace Creek","Inyo",36.4277,-116.8747,"92328"
"301","Eucalyptus Hills","San Diego",32.885,-116.9453,"92040"
"302","Fairview","Alameda",37.676,-122.0481,"94541 94542"
"303","Fetters Hot Springs","Sonoma",38.3199,-122.4861,"95476"
"304","Freeport","Sacramento",38.4633,-121.5023,"95832 95831"
"305","Grayson","Stanislaus",37.5796,-121.1837,"95363"
"306","San Anselmo","Marin",37.9821,-122.5699,"94960 94979"
"307","Kneeland","Humboldt",40.7612,-123.9948,"95549"
"308","Ashland","Alameda",37.6942,-122.1159,"94541 94580 94578"
"309","Big River","San Bernardino",34.1393,-114.3604,"92242"
"310","Kerman","Fresno",36.7249,-120.0625,"93630"
"311","Laguna Woods","Orange",33.6099,-117.7299,"92637 92609 92654"
"312","Marina del Rey","Los Angeles",33.9765,-118.4486,"90292 90295"
"313","Graeagle","Plumas",39.7572,-120.6486,"96103"
"314","Solromar","Ventura",34.05,-118.9537,"90265"
"315","Suncrest","San Diego",32.8042,-116.8645,"92021"
"316","Indio Hills","Riverside",33.8417,-116.248,"92241"
"317","Pollock Pines","El Dorado",38.7565,-120.5904,"95726 95709"
"318","Loyola","Santa Clara",37.3501,-122.098,"94024"
"319","Rancho Calaveras","Calaveras",38.1248,-120.857,"95252"
"320","Westmorland","Imperial",33.0389,-115.6223,"92281"
"321","Hidden Hills","Los Angeles",34.1637,-118.6612,"91302"
"322","La Honda","San Mateo",37.3182,-122.2651,"94020"
"323","Storrie","Plumas",39.9235,-121.3192,"95915"
"324","Menlo Park","San Mateo",37.4689,-122.1662,"94025 94026"
"325","Corona","Riverside",33.8623,-117.5642,"92882 92880 92881 92879 92877 92878"
"326","Alamo","Contra Costa",37.8546,-122.013,"94507"
"327","Cherokee Strip","Kern",35.4693,-119.2614,"93263"
"328","Walnut Creek","Contra Costa",37.9025,-122.0398,"94596 94597 94598 94595 94529"
"329","Fresno","Fresno",36.7834,-119.7933,"93721 93730 93650 93702 93703 93701 93706 93704 93705 93728 93720 93722 93726 93727 93711 93710 93707 93708 93709 93714 93715 93716 93717 93718 93724 93729 93740 93744 93750 93755 93760 93761 93764 93765 93771 93772 93774 93775 93776 93777 93778 93779 93790 93791 93792 93793 93794 93844"
"330","Bootjack","Mariposa",37.4672,-119.8887,"95338"
"331","Pasadena","Los Angeles",34.1598,-118.1389,"91101 91106 91104 91105 91103 91107 91102 91109 91110 91114 91115 91116 91117 91121 91123 91124 91125 91126 91129 91182 91184 91188 91189 91199"
"332","Hobergs","Lake",38.8435,-122.7244,"95426"
"333","San Marcos","San Diego",33.135,-117.1743,"92078 92069 92079 92096"
"334","Badger","Tulare",36.6313,-119.0132,"93603"
"335","Milpitas","Santa Clara",37.4338,-121.8921,"95035"
"336","Oakhurst","Madera",37.3342,-119.6483,"93644"
"337","Hillsborough","San Mateo",37.5573,-122.3587,"94010"
"338","Valley Home","Stanislaus",37.8277,-120.9154,"95361"
"339","Tranquillity","Fresno",36.648,-120.2526,"93668"
"340","Wofford Heights","Kern",35.7127,-118.4731,"93285"
"341","Three Rocks","Fresno",36.5051,-120.3936,"93608"
"342","National City","San Diego",32.6654,-117.0983,"91950 91951 92136"
"343","Diablo Grande","Stanislaus",37.4006,-121.2699,"95363"
"344","Piedmont","Alameda",37.8226,-122.2301,"94611 94610"
"345","Malibu","Los Angeles",34.0368,-118.7845,"90265"
"346","Aguanga","Riverside",33.4522,-116.8555,"92536"
"347","Mayflower Village","Los Angeles",34.1159,-118.0096,"91016 91006"
"348","Casmalia","Santa Barbara",34.8376,-120.5311,"93429"
"349","Lamont","Kern",35.2651,-118.9159,"93307 93241"
"350","Lake San Marcos","San Diego",33.1197,-117.209,"92078"
"351","Los Alamitos","Orange",33.7972,-118.0594,"90720 90721"
"352","Bieber","Lassen",41.1251,-121.1336,"96009"
"353","Hawaiian Gardens","Los Angeles",33.8303,-118.0728,"90716"
"354","Arcadia","Los Angeles",34.1342,-118.0373,"91006 91007 91066 91077"
"355","Rodeo","Contra Costa",38.0368,-122.2526,"94525 94572"
"356","Monta Vista","Santa Clara",37.3227,-122.058,"95014"
"357","Parksdale","Madera",36.9462,-120.0218,"93638"
"358","West Point","Calaveras",38.4043,-120.5374,"95255"
"359","Madison","Yolo",38.675,-121.9702,"95627 95653"
"360","Yreka","Siskiyou",41.7292,-122.6312,"96097"
"361","Denair","Stanislaus",37.5256,-120.7997,"95316"
"362","Gustine","Merced",37.2545,-120.9948,"95322"
"363","Dunnigan","Yolo",38.8926,-121.9741,"95937"
"364","Clio","Plumas",39.7486,-120.5726,"96106"
"365","Florin","Sacramento",38.4832,-121.4042,"95823 95828"
"366","Boulevard","San Diego",32.664,-116.2896,"91905"
"367","Pedley","Riverside",33.9753,-117.4758,"92509"
"368","Scotland","San Bernardino",34.2422,-117.4981,"92358"
"369","Fairfield","Solano",38.2593,-122.0319,"94534 94535 94533 94585"
"370","Crest","San Diego",32.8,-116.8671,"92021 92019"
"371","Richfield","Tehama",39.9739,-122.1733,"96021"
"372","Firebaugh","Fresno",36.8533,-120.4536,"93622"
"373","Glen Avon","Riverside",34.0117,-117.4848,"92509"
"374","Calexico","Imperial",32.6849,-115.4944,"92231 92232"
"375","Belden","Plumas",40.004,-121.254,"95915"
"376","Porterville","Tulare",36.0636,-119.0332,"93257"
"377","Mission Viejo","Orange",33.6095,-117.655,"92692 92691 92690"
"378","Redwood Terrace","San Mateo",37.3147,-122.295,"94020"
"379","Junction City","Trinity",40.7274,-123.0615,"96048"
"380","Pleasanton","Alameda",37.666,-121.8805,"94566 94588"
"381","Richgrove","Tulare",35.7966,-119.1069,"93261"
"382","Vista","San Diego",33.1895,-117.2386,"92084 92083 92081 92085"
"383","Mount Shasta","Siskiyou",41.3206,-122.315,"96067"
"384","Green Acres","Riverside",33.735,-117.0783,"92545 92596"
"385","Big Pine","Inyo",37.1655,-118.2951,"93513"
"386","Gerber","Tehama",40.0614,-122.1484,"96035"
"387","Carson","Los Angeles",33.8374,-118.2559,"90248 90810 90747 90746 90745 90224 90749 90895"
"388","Sleepy Hollow","San Bernardino",33.9478,-117.7787,"91709"
"389","Borrego Springs","San Diego",33.241,-116.3571,"92004"
"390","Tuolumne City","Tuolumne",37.9615,-120.2428,"95379"
"391","McArthur","Shasta",41.0415,-121.4068,"96056 96028"
"392","Hoopa","Humboldt",41.0802,-123.6972,"95546"
"393","Tracy","San Joaquin",37.7254,-121.4447,"95377 95376 95304"
"394","Arnold","Calaveras",38.2423,-120.3546,"95223"
"395","Gardena","Los Angeles",33.8944,-118.3073,"90247 90249"
"396","Marinwood","Marin",38.0383,-122.5378,"94903"
"397","North Auburn","Placer",38.9306,-121.082,"95603 95602"
"398","Palo Alto","Santa Clara",37.3917,-122.1465,"94022 95033 94303 94301 94306 94304 94302"
"399","Lomita","Los Angeles",33.7934,-118.3175,"90717"
"400","Vine Hill","Contra Costa",38.007,-122.0873,"94553"
"401","Carnelian Bay","Placer",39.2346,-120.0767,"95604 96140"
"402","Clifton","Los Angeles",33.8275,-118.3797,"90277"
"403","Graniteville","Nevada",39.4443,-120.7361,"95959"
"404","McCloud","Siskiyou",41.2541,-122.136,"96057"
"405","Empire","Stanislaus",37.6429,-120.9042,"95319 95357"
"406","East Shore","Plumas",40.2453,-121.0768,"96137"
"407","Meadow Valley","Plumas",39.9323,-121.0831,"95956 95971"
"408","Chino Hills","San Bernardino",33.9508,-117.7254,"91709"
"409","Pacifica","San Mateo",37.6112,-122.4781,"94044"
"410","Cowell","Contra Costa",37.9527,-121.9894,"94521"
"411","Hamilton Branch","Plumas",40.2772,-121.0961,"96137"
"412","Columbia","Tuolumne",38.0333,-120.4097,"95310 95370"
"413","El Sobrante","Contra Costa",37.9723,-122.2959,"94803 94820"
"414","Hilt","Siskiyou",41.9949,-122.6234,"96044"
"415","Signal Hill","Los Angeles",33.8029,-118.1681,"90755"
"416","Granite Hills","San Diego",32.8033,-116.9056,"92021 92019"
"417","Santa Maria","Santa Barbara",34.9334,-120.4433,"93454 93455 93458 93456"
"418","Murphys","Calaveras",38.1447,-120.4348,"95247"
"419","Willowbrook","Los Angeles",33.9199,-118.2362,"90059 90222"
"420","Hyampom","Trinity",40.6262,-123.4689,"96046"
"421","Westside","Fresno",36.4042,-120.1341,"93624"
"422","Easton","Fresno",36.6524,-119.7908,"93725 93706"
"423","Shackelford","Stanislaus",37.6138,-120.9927,"95351"
"424","El Casco","Riverside",33.9811,-117.1184,"92373"
"425","Keyes","Stanislaus",37.5619,-120.9089,"95326 95328 95307"
"426","Wildomar","Riverside",33.6173,-117.2582,"92595"
"427","Laguna Beach","Orange",33.5449,-117.7613,"92651 92652"
"428","Spring Valley Lake","San Bernardino",34.4998,-117.2686,"92395"
"429","San Diego Country Estates","San Diego",33.0093,-116.7876,"92065"
"430","Burnt Ranch","Trinity",40.811,-123.5082,"95527"
"431","Indian Falls","Plumas",40.0587,-120.9803,"95934"
"432","Hartley","Solano",38.4203,-121.9521,"95688"
"433","Santa Barbara","Santa Barbara",34.4285,-119.7202,"93105 93101 93103 93109 93102 93106 93120 93121 93130 93140 93190"
"434","Mecca","Riverside",33.5767,-116.0645,"92254"
"435","Tahoe City","Placer",39.1721,-120.1388,"96145"
"436","Wilton","Sacramento",38.413,-121.2127,"95693"
"437","Fort Bragg","Mendocino",39.4416,-123.8033,"95437"
"438","Temple City","Los Angeles",34.1022,-118.0579,"91780"
"439","Alta Sierra","Nevada",39.1237,-121.0523,"95949"
"440","Orange","Orange",33.8038,-117.8219,"92868 92869 92866 92867 92865 92856 92857 92859 92863 92864"
"441","North Edwards","Kern",35.0474,-117.8093,"93523"
"442","Pasatiempo","Santa Cruz",37.0035,-122.0265,"95060"
"443","Hidden Meadows","San Diego",33.2236,-117.1198,"92026"
"444","Lake Elsinore","Riverside",33.6847,-117.3346,"92570 92532 92530"
"445","College City","Colusa",39.0063,-122.0068,"95912"
"446","Mineral","Tehama",40.3755,-121.5694,"96063 96061"
"447","Portola Valley","San Mateo",37.3713,-122.2203,"94028"
"448","Moonstone","Humboldt",41.0301,-124.1095,"95570"
"449","Sunnyvale","Santa Clara",37.3846,-122.0261,"95002 94085 94086 94087 94089 94088"
"450","Sattley","Sierra",39.6265,-120.4357,"96124"
"451","Burrel","Fresno",36.4883,-119.9851,"93656"
"452","San Bruno","San Mateo",37.6254,-122.4313,"94066"
"453","Mesa Vista","Alpine",38.8102,-119.8033,"96120"
"454","Cedarville","Modoc",41.5281,-120.1748,"96104"
"455","Lake Arrowhead","San Bernardino",34.2531,-117.1945,"92391 92385 92352 92321 92378 92317"
"456","Suisun","Solano",38.2471,-122.0086,"94585"
"457","Wheeler Ridge","Kern",35.0044,-118.9495,"93307"
"458","Proberta","Tehama",40.0762,-122.1776,"96035 96080 96078"
"459","Wilsonia","Tulare",36.7346,-118.9558,"93633"
"460","Thornton","San Joaquin",38.231,-121.4249,"95632 95686"
"461","Vista Santa Rosa","Riverside",33.6226,-116.2127,"92274 92236"
"462","Cassel","Shasta",40.9213,-121.5515,"96016"
"463","Devore","San Bernardino",34.2164,-117.4014,"92407"
"464","Little Grass Valley","Plumas",39.7253,-120.959,"95981"
"465","August","San Joaquin",37.9796,-121.2625,"95205"
"466","Vallecito","Calaveras",38.074,-120.4563,"95251"
"467","Watsonville","Santa Cruz",36.9206,-121.7706,"95076 95019 95077"
"468","Malaga","Fresno",36.6816,-119.7318,"93725"
"469","Westmont","Los Angeles",33.9417,-118.3018,"90044 90047"
"470","Allensworth","Tulare",35.85,-119.3892,"93219"
"471","Calabasas","Los Angeles",34.1375,-118.6689,"91302 91372"
"472","Monterey Park","Los Angeles",34.0497,-118.1325,"91754 91755 91756"
"473","Fields Landing","Humboldt",40.7249,-124.2176,"95537 95551 95503"
"474","Earlimart","Tulare",35.8824,-119.2715,"93219"
"475","Pine Valley","San Diego",32.8415,-116.5108,"91962"
"476","San Rafael","Marin",37.9905,-122.5222,"94901 94903 94913 94915"
"477","Costa Mesa","Orange",33.6667,-117.9135,"92626 92627 92628"
"478","Garey","Santa Barbara",34.8869,-120.3141,"93454"
"479","Roseville","Placer",38.7683,-121.3164,"95661 95747 95678"
"480","El Toro","Orange",33.647,-117.6837,"92630"
"481","Weott","Humboldt",40.3226,-123.9208,"95554 95571"
"482","Del Aire","Los Angeles",33.9168,-118.3693,"90250"
"483","Livermore","Alameda",37.6863,-121.7607,"94550 94551"
"484","Herndon","Fresno",36.8366,-119.9174,"93722"
"485","Butte Meadows","Butte",40.0871,-121.537,"95942"
"486","Lenwood","San Bernardino",34.8852,-117.1083,"92311"
"487","College Heights","San Bernardino",34.1067,-117.6892,"91786"
"488","Oak Glen","San Bernardino",34.0449,-116.9495,"92399"
"489","Desert Hot Springs","Riverside",33.955,-116.543,"92282 92240 92258"
"490","Onyx","Kern",35.6839,-118.2102,"93255"
"491","Coachella","Riverside",33.691,-116.1451,"92236"
"492","Oasis","Riverside",33.5275,-116.1261,"92274"
"493","Sierra Madre","Los Angeles",34.1687,-118.0504,"91024 91025"
"494","Green Valley Lake","San Bernardino",34.2408,-117.0773,"92341"
"495","Elkhorn","Monterey",36.8103,-121.7211,"93907 95012"
"496","Carmichael","Sacramento",38.6336,-121.3229,"95608 95841 95628 95609"
"497","Soulsbyville","Tuolumne",37.9917,-120.2617,"95372"
"498","Sausalito","Marin",37.8581,-122.4932,"94965 94966"
"499","Hughson","Stanislaus",37.6026,-120.8661,"95326"
"500","Beckwourth","Plumas",39.8485,-120.4111,"96122"
"501","Pond","Kern",35.7177,-119.3287,"93280"
"502","Hartland","Tulare",36.6517,-118.9552,"93603"
"503","Cuyama","Santa Barbara",34.9312,-119.6148,"93254"
"504","Ceres","Stanislaus",37.5954,-120.9624,"95358 95351 95307"
"505","Smartsville","Yuba",39.2053,-121.2928,"95977"
"506","Holtville","Imperial",32.8129,-115.3779,"92250"
"507","Fish Camp","Mariposa",37.4797,-119.6374,"93623"
"508","Glen Ellen","Sonoma",38.3564,-122.5412,"95442"
"509","Janesville","Lassen",40.2809,-120.5335,"96114"
"510","Turlock","Stanislaus",37.5053,-120.8588,"95380 95382 95381"
"511","Bassett","Los Angeles",34.0497,-117.9967,"91746"
"512","Greeley Hill","Mariposa",37.7569,-120.129,"95311"
"513","San Antonio Heights","San Bernardino",34.1571,-117.6584,"91784"
"514","Round Mountain","Shasta",40.8005,-121.9375,"96084"
"515","Palomar Park","San Mateo",37.4816,-122.2644,"94070"
"516","Muir Beach","Marin",37.8654,-122.5858,"94965"
"517","Cypress","Orange",33.8171,-118.0386,"90630"
"518","Delhi","Merced",37.4306,-120.7759,"95315"
"519","Gold River","Sacramento",38.6267,-121.2486,"95670"
"520","Lake Almanor West","Plumas",40.2335,-121.202,"96020"
"521","Blythe","Riverside",33.6219,-114.6177,"92225 92226"
"522","Acampo","San Joaquin",38.1735,-121.2798,"95220"
"523","Ukiah","Mendocino",39.1461,-123.2101,"95482 95418"
"524","Morada","San Joaquin",38.0386,-121.2456,"95212"
"525","Eureka","Humboldt",40.7941,-124.1568,"95503 95501 95521 95534"
"526","West Puente Valley","Los Angeles",34.0512,-117.9681,"91746 91744"
"527","Newberry Springs","San Bernardino",34.8272,-116.6884,"92365"
"528","Pittsburg","Contra Costa",38.019,-121.897,"94565"
"529","Glenview","San Diego",32.8323,-116.9059,"92040"
"530","Deer Park","Napa",38.5362,-122.468,"94508 94574 94576"
"531","Red Bluff","Tehama",40.1734,-122.2414,"96080"
"532","Gilroy","Santa Clara",37.0048,-121.5843,"95020"
"533","Waukena","Tulare",36.1361,-119.5109,"93274"
"534","Maricopa","Kern",35.0516,-119.4054,"93252"
"535","Nicasio","Marin",38.0607,-122.7008,"94946"
"536","San Marino","Los Angeles",34.1224,-118.1132,"91108 91118"
"537","Huntington Park","Los Angeles",33.98,-118.2167,"90255"
"538","Pi√±on Hills","San Bernardino",34.4438,-117.6214,"92371 92372"
"539","Rosemead","Los Angeles",34.0688,-118.0823,"91770 91771 91772"
"540","Colusa","Colusa",39.2049,-122.0095,"95932"
"541","Iron Horse","Plumas",39.7805,-120.4823,"96122"
"542","Palo Verde","Imperial",33.4279,-114.7273,"92266"
"543","Parlier","Fresno",36.6082,-119.5436,"93648"
"544","Spreckels","Monterey",36.6247,-121.6465,"93962"
"545","El Rio","Ventura",34.2452,-119.1568,"93036"
"546","Commerce","Los Angeles",33.9963,-118.1519,"90040 90022 90023 90091"
"547","Creston","San Luis Obispo",35.5173,-120.521,"93432"
"548","Mabie","Plumas",39.777,-120.5448,"96122"
"549","Arcata","Humboldt",40.862,-124.0754,"95521 95518"
"550","Crows Landing","Stanislaus",37.3947,-121.0843,"95360 95313"
"551","Lockwood","Monterey",35.9412,-121.0802,"93426 93932"
"552","Canby","Modoc",41.4477,-120.8843,"96015"
"553","Lake Davis","Plumas",39.8564,-120.463,"96122"
"554","Julian","San Diego",33.0736,-116.589,"92036"
"555","Desert Edge","Riverside",33.9223,-116.4401,"92241"
"556","Yucaipa","San Bernardino",34.0335,-117.0426,"92399"
"557","Norwalk","Los Angeles",33.9069,-118.0829,"90650 90651 90652"
"558","Ontario","San Bernardino",34.0393,-117.6064,"91762 91761 91764 91743 91758"
"559","Whitehawk","Plumas",39.7206,-120.5536,"96106"
"560","Pixley","Tulare",35.9769,-119.2889,"93256"
"561","Hollywood","Los Angeles",34.0983,-118.3267,"90028"
"562","Klamath River","Siskiyou",41.8612,-122.8256,"96050"
"563","San Carlos","San Mateo",37.4982,-122.268,"94070"
"564","East La Mirada","Los Angeles",33.9245,-117.989,"90604"
"565","Willow Ranch","Modoc",41.9024,-120.3583,"97635"
"566","Ponderosa","Tulare",36.1051,-118.5293,"93265"
"567","Burlingame","San Mateo",37.586,-122.367,"94010 94011"
"568","Reedley","Fresno",36.5988,-119.4473,"93654"
"569","Posey","Tulare",35.8038,-118.6787,"93260"
"570","Cecilville","Siskiyou",41.141,-123.14,"96031"
"571","Nicolaus","Sutter",38.8981,-121.5729,"95659"
"572","Olivehurst","Yuba",39.0817,-121.5549,"95961"
"573","La Crescenta","Los Angeles",34.2242,-118.2401,"91214"
"574","Fortuna","Humboldt",40.5855,-124.1417,"95540"
"575","Litchfield","Lassen",40.3877,-120.381,"96117"
"576","Avocado Heights","Los Angeles",34.0381,-118.0026,"91746 90601"
"577","Bear Valley Springs","Kern",35.1775,-118.646,"93561"
"578","Meeks Bay","El Dorado",39.0344,-120.1241,"96142"
"579","Concord","Contra Costa",37.9722,-122.0016,"94518 94519 94521 94520 94522 94524 94527"
"580","Mountain Mesa","Kern",35.6411,-118.4047,"93240"
"581","Canyon","Alameda",37.8316,-122.1877,"94611"
"582","Frazier Park","Kern",34.8123,-118.9542,"93225"
"583","Madeline","Lassen",41.051,-120.4755,"96119"
"584","South Dos Palos","Merced",36.9707,-120.6467,"93620 93665"
"585","Scotts Valley","Santa Cruz",37.0555,-122.0118,"95066"
"586","Sunnyslope","Riverside",34.012,-117.4334,"92509"
"587","Goodyears Bar","Sierra",39.5458,-120.8881,"95944"
"588","Atwater","Merced",37.3543,-120.5981,"95301"
"589","Torrance","Los Angeles",33.8346,-118.3417,"90277 90501 90503 90505 90504 90507 90508 90509 90510"
"590","Rio Dell","Humboldt",40.5024,-124.1105,"95540 95562"
"591","Tulelake","Siskiyou",41.9533,-121.4751,"96134"
"592","Orange Park Acres","Orange",33.802,-117.7823,"92869"
"593","Antioch","Contra Costa",37.9789,-121.7958,"94531 94509"
"594","Oceano","San Luis Obispo",35.1019,-120.609,"93445 93475"
"595","Soda Bay","Lake",39.0024,-122.7794,"95451"
"596","Kyburz","El Dorado",38.7746,-120.2969,"95720"
"597","Elk Grove","Sacramento",38.416,-121.3841,"95757 95758 95624 95759"
"598","Bear Valley","Alpine",38.4722,-120.0491,"95223"
"599","Strawberry","Tuolumne",38.1986,-120.0106,"95375"
"600","Boonville","Mendocino",39.0115,-123.374,"95415"
"601","Sugarloaf Mountain Park","Tulare",35.8379,-118.6039,"93260"
"602","La Selva Beach","Santa Cruz",36.9276,-121.8444,"95076"
"603","Red Mountain","San Bernardino",35.3583,-117.6167,"93558"
"604","Highgrove","Riverside",34.0106,-117.3098,"92557 92324 92507"
"605","South Fontana","San Bernardino",34.0628,-117.4889,"92337"
"606","Val Verde","Los Angeles",34.4504,-118.6718,"91384"
"607","Groveland","Tuolumne",37.8325,-120.2394,"95321 95305"
"608","Elmira","Solano",38.3523,-121.9076,"95625 95687"
"609","Dominguez","Los Angeles",33.8347,-118.2187,"90810"
"610","Sierra Village","Tuolumne",38.0767,-120.1624,"95335 95346"
"611","Santa Venetia","Marin",38.0055,-122.5033,"94901 94903"
"612","South Gate","Los Angeles",33.9448,-118.1926,"90280"
"613","Moraga","Contra Costa",37.8438,-122.1225,"94556 94575"
"614","Glendora","Los Angeles",34.1449,-117.8466,"91740 91741"
"615","North El Monte","Los Angeles",34.103,-118.0238,"91780 91006"
"616","Keddie","Plumas",40.0059,-120.9526,"95971"
"617","Emigrant Gap","Placer",39.2968,-120.6727,"95715"
"618","Ridgecrest","Kern",35.631,-117.6619,"93555 93556"
"619","Laguna Niguel","Orange",33.5275,-117.705,"92677 92607"
"620","Sacramento","Sacramento",38.5666,-121.4683,"95821 95823 95838 95832 95833 95831 95834 95835 95811 95814 95815 95816 95818 95819 95828 95820 95822 95825 95824 95826 95817 94203 94204 94205 94207 94208 94209 94211 94229 94230 94232 94234 94235 94236 94237 94239 94240 94244 94245 94247 94248 94249 94250 94252 94254 94256 94257 94258 94259 94261 94262 94263 94267 94268 94269 94271 94273 94274 94277 94278 94279 94280 94282 94283 94284 94285 94286 94287 94288 94289 94290 94291 94293 94294 94295 94296 94297 94298 94299 95812 95813 95840 95851 95852 95853 95867 95894"
"621","Lemoore","Kings",36.296,-119.7983,"93245"
"622","Adin","Modoc",41.1964,-120.9494,"96006"
"623","Blairsden","Plumas",39.7752,-120.6109,"96103"
"624","Colma","San Mateo",37.6767,-122.4526,"94014"
"625","Seaside","Monterey",36.6224,-121.8191,"93955"
"626","Lytle Creek","San Bernardino",34.2499,-117.5044,"92358"
"627","Caliente","Kern",35.2911,-118.6279,"93518"
"628","El Portal","Mariposa",37.6736,-119.799,"95318"
"629","East Porterville","Tulare",36.0573,-118.9712,"93257"
"630","Los Banos","Merced",37.0631,-120.8405,"93635"
"631","Folsom","Sacramento",38.6751,-121.1476,"95630 95671 95763"
"632","South Laguna","Orange",33.5006,-117.7431,"92651"
"633","Manchester","Mendocino",38.9744,-123.6909,"95459"
"634","Lake Isabella","Kern",35.6378,-118.4819,"93285 93240"
"635","Montara","San Mateo",37.5482,-122.4924,"94037"
"636","Oak Hills","San Bernardino",34.3911,-117.4126,"92344"
"637","Camptonville","Yuba",39.4521,-121.0487,"95960 95922"
"638","Fontana","San Bernardino",34.0967,-117.4599,"92335 92336 92337 92331 92334 92402"
"639","Tuolumne","Tuolumne",37.9608,-120.2374,"95379"
"640","San Martin","Santa Clara",37.0829,-121.5963,"95046 95020 95038"
"641","Shingletown","Shasta",40.5033,-121.8602,"96088"
"642","Cloverdale","Sonoma",38.796,-123.0152,"95425"
"643","Country Club","San Joaquin",37.9687,-121.3408,"95204"
"644","Del Rio","Stanislaus",37.7432,-121.0086,"95356"
"645","Imperial Beach","San Diego",32.5687,-117.1184,"92154 91932 91933"
"646","Catheys Valley","Mariposa",37.4371,-120.0936,"95306"
"647","Heber","Imperial",32.7318,-115.5204,"92249"
"648","Cedar Slope","Tulare",36.1436,-118.5771,"93208"
"649","Lemon Grove","San Diego",32.7331,-117.0344,"91945 91946"
"650","Alamo Oaks","Contra Costa",37.8394,-121.993,"94507"
"651","Macdoel","Siskiyou",41.8256,-122.0058,"96058"
"652","Daly City","San Mateo",37.6863,-122.4684,"94015 94014 94016 94017"
"653","Lagunitas","Marin",38.0113,-122.7022,"94938"
"654","Orinda","Contra Costa",37.8808,-122.179,"94563"
"655","El Granada","San Mateo",37.5141,-122.4652,"94019 94018"
"656","San Pasqual","San Diego",34.1393,-118.1027,"91107"
"657","Lee Vining","Mono",37.9547,-119.1221,"93541"
"658","Crescent Mills","Plumas",40.1008,-120.9217,"95934"
"659","Valley Springs","Calaveras",38.1837,-120.8151,"95252"
"660","Traver","Tulare",36.4526,-119.4824,"93673"
"661","Riverside","Riverside",33.9382,-117.3949,"92508 92503 92501 92505 92504 92507 92506 92502 92513 92514 92516 92517 92521 92522"
"662","Descanso","San Diego",32.8696,-116.628,"91916"
"663","Brawley","Imperial",32.9787,-115.53,"92227"
"664","Buttonwillow","Kern",35.4092,-119.4406,"93206"
"665","Potrero","San Diego",32.6131,-116.6069,"91963"
"666","Camp Nelson","Tulare",36.142,-118.6107,"93208 93265"
"667","El Cajon","San Diego",32.8017,-116.9604,"92020 92021 92019"
"668","Tecopa","Inyo",35.835,-116.2074,"92389"
"669","Millbrae","San Mateo",37.5994,-122.4024,"94030"
"670","Pacific Grove","Monterey",36.6192,-121.9255,"93950"
"671","Rosemont","Sacramento",38.5478,-121.3551,"95827 95826"
"672","Aptos","Santa Cruz",36.9912,-121.8928,"95003 95001"
"673","Santa Ynez","Santa Barbara",34.6151,-120.0944,"93463 93460"
"674","Vincent","Los Angeles",34.5005,-118.1165,"93550"
"675","Bay Point","Contra Costa",38.0329,-121.9613,"94565"
"676","Davenport","Santa Cruz",37.0177,-122.1882,"95017"
"677","Laws","Inyo",37.4008,-118.3457,"93514"
"678","Merced","Merced",37.3057,-120.4779,"95348 95340 95341 95343"
"679","Mira Loma","Riverside",33.9925,-117.5164,"91752"
"680","Murrieta","Riverside",33.572,-117.1909,"92563 92562"
"681","San Gregorio","San Mateo",37.3272,-122.3866,"94074"
"682","Peters","San Joaquin",37.9763,-121.0439,"95236"
"683","Auberry","Fresno",37.0755,-119.49,"93602"
"684","Hornbrook","Siskiyou",41.908,-122.5597,"96044"
"685","Rheem","Contra Costa",37.8608,-122.1272,"95548"
"686","Tahoe Vista","Placer",39.2483,-120.0535,"96143 96148"
"687","Ojai","Ventura",34.4487,-119.2469,"93023 93024"
"688","Tarpey Village","Fresno",36.794,-119.701,"93727"
"689","West Park","Fresno",36.7055,-119.8516,"93706 93773"
"690","Comptche","Mendocino",39.2652,-123.5897,"95427"
"691","Hardwick","Kings",36.4026,-119.7208,"93230"
"692","Cold Springs","El Dorado",38.7468,-120.8762,"95667"
"693","Cohasset","Butte",39.9027,-121.7448,"95973"
"694","West Menlo Park","San Mateo",37.4338,-122.2034,"94025"
"695","Salmon Creek","Sonoma",38.3463,-123.0595,"94923"
"696","Courtland","Sacramento",38.3329,-121.557,"95615"
"697","Rialto","San Bernardino",34.1128,-117.3885,"92316 92376 92377"
"698","Weaverville","Trinity",40.7488,-122.9274,"96093"
"699","Dutch Flat","Placer",39.208,-120.8345,"95714"
"700","Garden Farms","San Luis Obispo",35.4158,-120.614,"93422"
"701","Wheatland","Yuba",39.0073,-121.4283,"95692"
"702","Lucerne","Lake",39.0697,-122.776,"95458"
"703","West Carson","Los Angeles",33.8229,-118.2931,"90710 90502"
"704","Elk Creek","Glenn",39.6002,-122.5376,"95939"
"705","Woodland","Yolo",38.6712,-121.75,"95776 95695"
"706","Santa Rosa","Sonoma",38.4465,-122.7059,"95404 95409 95403 95401 95407 95405 95406"
"707","Palm Desert Country","Riverside",33.7406,-116.3156,"92211"
"708","Avila Beach","San Luis Obispo",35.1971,-120.7192,"93405 93424"
"709","Planada","Merced",37.2892,-120.3207,"95333 95365"
"710","Kirkwood","Alpine",38.693,-120.064,"95646"
"711","Marysville","Yuba",39.1518,-121.5835,"95901"
"712","Newcastle","Placer",38.8677,-121.1317,"95658"
"713","Palmdale","Los Angeles",34.5945,-118.1058,"93550 93591 93552 93551 93590 93599"
"714","Saratoga","Santa Clara",37.2685,-122.0254,"95070 95071"
"715","Occidental","Sonoma",38.4003,-122.9349,"95472 95465 95419"
"716","Plainview","Tulare",36.1423,-119.1375,"93267"
"717","Angels Camp","Calaveras",38.0683,-120.5396,"95222"
"718","Sultana","Tulare",36.5464,-119.336,"93666 93618"
"719","West Covina","Los Angeles",34.0555,-117.9112,"91792 91791 91790 91793"
"720","Belmont","San Mateo",37.5154,-122.2955,"94002"
"721","Bloomfield","Sonoma",38.3183,-122.8502,"94952"
"722","Sky Londa","San Mateo",37.3836,-122.2627,"94062"
"723","Long Beach","Los Angeles",33.8059,-118.161,"90822 90804 90805 90806 90807 90802 90803 90808 90831 90814 90813 90810 90815 90801 90832 90833 90834 90835 90840 90842 90844 90846 90847 90848 90853 90899"
"724","London","Tulare",36.481,-119.444,"93618"
"725","Greenacres","Kern",35.3831,-119.1183,"93312"
"726","Sloat","Plumas",39.8666,-120.7274,"96103"
"727","Santee","San Diego",32.8555,-116.9848,"92071"
"728","Montalvo","Ventura",34.2539,-119.2037,"93003"
"729","Los Osos","San Luis Obispo",35.3068,-120.8249,"93402 93412"
"730","Walnut","Los Angeles",34.0334,-117.8593,"91789 91788"
"731","Madera","Madera",36.964,-120.0803,"93637 93638 93639"
"732","White Water","Riverside",33.9356,-116.6872,"92282"
"733","Hornitos","Mariposa",37.5034,-120.242,"95338 95325"
"734","Rollingwood","Contra Costa",37.9655,-122.3305,"94806"
"735","Benicia","Solano",38.0704,-122.1542,"94510"
"736","Atherton","San Mateo",37.4539,-122.2032,"94027"
"737","Brentwood","Contra Costa",37.9356,-121.719,"94513"
"738","Los Medanos","Contra Costa",38.0121,-121.8513,"94565"
"739","Sutter Creek","Amador",38.3827,-120.8112,"95685"
"740","South Pasadena","Los Angeles",34.1103,-118.1573,"91030 91031"
"741","Friant","Fresno",36.9848,-119.713,"93626"
"742","Cazadero","Sonoma",38.5265,-123.0978,"95421"
"743","Sonora","Tuolumne",37.9819,-120.3828,"95370"
"744","Kettleman City","Kings",36.009,-119.9628,"93239"
"745","Surfside","Orange",33.7278,-118.0823,"92649"
"746","Moccasin","Tuolumne",37.8108,-120.2999,"95305"
"747","Santa Margarita","San Luis Obispo",35.3895,-120.6082,"93453"
"748","Rutherford","Napa",38.4568,-122.4231,"94558 94573 94574"
"749","Meadow Vista","Placer",39.003,-121.0304,"95722"
"750","Monrovia","Los Angeles",34.165,-117.9921,"91016 91017 91185"
"751","Ripley","Riverside",33.5238,-114.653,"92225"
"752","Los Alamos","Santa Barbara",34.7375,-120.2783,"93440"
"753","Whitley Gardens","San Luis Obispo",35.6571,-120.5069,"93446"
"754","Los Serranos","San Bernardino",33.9728,-117.7081,"91709"
"755","Agoura","Los Angeles",34.1431,-118.7379,"91301"
"756","Santa Susana","Ventura",34.258,-118.6662,"93063"
"757","Nipinnawasee","Madera",37.4031,-119.7293,"93601"
"758","Desert View Highlands","Los Angeles",34.5902,-118.1536,"93551"
"759","Cartago","Inyo",36.3123,-118.0261,"93549"
"760","Lamoine","Shasta",40.9779,-122.4308,"96051"
"761","Middletown","Lake",38.7519,-122.6221,"95461"
"762","Copperopolis","Calaveras",37.9365,-120.6277,"95228"
"763","Mount Baldy","San Bernardino",34.2361,-117.6601,"91759"
"764","Valle Vista","Riverside",33.7436,-116.8872,"92544"
"765","Rolling Hills Estates","Los Angeles",33.7783,-118.3508,"90274"
"766","Aliso Viejo","Orange",33.5792,-117.729,"92656"
"767","Weed","Siskiyou",41.4127,-122.3815,"96094"
"768","Santa Cruz","Santa Cruz",36.9788,-122.0346,"95065 95064 95060 95062 95061 95063 95067"
"769","Sunnyside","Fresno",36.7295,-119.6946,"93727"
"770","Vacaville","Solano",38.3592,-121.9686,"95687 95688"
"771","Dunsmuir","Siskiyou",41.2318,-122.2714,"96067 96025"
"772","San Ardo","Monterey",36.0238,-120.9074,"93450"
"773","Artesia","Los Angeles",33.8676,-118.0806,"90701 90702"
"774","Soquel","Santa Cruz",36.9978,-121.9483,"95073 95003"
"775","Walker","Mono",38.5341,-119.4582,"96107"
"776","Moss Beach","San Mateo",37.5184,-122.5036,"94038 94019"
"777","West Whittier","Los Angeles",33.9886,-118.057,"90601"
"778","Stockton","San Joaquin",37.9766,-121.3111,"95212 95210 95211 95219 95209 95205 95207 95206 95202 95204 95203 95201 95267 95269 95296 95297"
"779","San Juan Capistrano","Orange",33.5009,-117.6544,"92675 92693"
"780","Lancaster","Los Angeles",34.6934,-118.1753,"93535 93534 93536 93539 93584"
"781","San Gabriel","Los Angeles",34.0948,-118.099,"91775 91776 91778"
"782","Parkwood","Madera",36.9293,-120.0482,"93637"
"783","Stinson Beach","Marin",37.9051,-122.6457,"94970"
"784","Floriston","Nevada",39.393,-120.0145,"96111"
"785","Rough and Ready","Nevada",39.234,-121.1381,"95959 95975"
"786","Palo Cedro","Shasta",40.5511,-122.2363,"96073"
"787","Homeland","Riverside",33.7459,-117.1133,"92548"
"788","Salton Sea Beach","Imperial",33.3759,-116.0115,"92274"
"789","Simi Valley","Ventura",34.2663,-118.749,"93065 93063 93062 93094 93099"
"790","Bradbury","Los Angeles",34.1535,-117.9684,"91008"
"791","Avalon","Los Angeles",33.3338,-118.3317,"90704"
"792","Dorris","Siskiyou",41.9644,-121.9205,"96058 96023"
"793","Lake Wildwood","Nevada",39.235,-121.2003,"95946"
"794","Johnstown","San Diego",32.8381,-116.8967,"92021"
"795","Ladera Heights","Los Angeles",33.9972,-118.374,"90008 90230 90056"
"796","San Dimas","Los Angeles",34.1082,-117.8089,"91773 91768"
"797","Plymouth","Amador",38.478,-120.845,"95669"
"798","Mojave","Kern",35.0139,-118.1895,"93501 93502"
"799","Port Costa","Contra Costa",38.0446,-122.185,"94569"
"800","Martell","Amador",38.362,-120.804,"95685 95642 95654"
"801","Rohnerville","Humboldt",40.5671,-124.1356,"95540"
"802","Magalia","Butte",39.8228,-121.6078,"95954"
"803","Shandon","San Luis Obispo",35.6536,-120.3831,"93461"
"804","Thermal","Riverside",33.6264,-116.1309,"92274"
"805","Rosamond","Kern",34.8658,-118.2154,"93560"
"806","Arvin","Kern",35.1944,-118.8306,"93203"
"807","Edison","Kern",35.3475,-118.8718,"93307"
"808","La Porte","Plumas",39.6725,-120.9853,"95981"
"809","Contra Costa Centre","Contra Costa",37.926,-122.054,"94597 94598"
"810","Corte Madera","Marin",37.9238,-122.5129,"94925 94976"
"811","Otterbein","Los Angeles",33.9875,-117.8848,"91748"
"812","Alameda","Alameda",37.767,-122.2673,"94502 94501"
"813","Fremont","Alameda",37.5256,-121.987,"94536 94538 94539 94555 94537"
"814","Boronda","Monterey",36.695,-121.6746,"93907"
"815","North Tustin","Orange",33.7644,-117.7945,"92705 92780 92711"
"816","Walnut Park","Los Angeles",33.9682,-118.222,"90255"
"817","Pearblossom","Los Angeles",34.5064,-117.9098,"93553"
"818","Jesmond Dene","San Diego",33.1803,-117.1092,"92026"
"819","Fowler","Fresno",36.6247,-119.6738,"93625"
"820","Montalvin","Contra Costa",37.9977,-122.33,"94806"
"821","Calipatria","Imperial",33.1488,-115.5058,"92233"
"822","Beaumont","Riverside",33.9052,-116.976,"92223"
"823","San Andreas","Calaveras",38.1912,-120.6763,"95249"
"824","Santa Monica","Los Angeles",34.0232,-118.4813,"90401 90402 90403 90404 90405 90406 90407 90408 90409 90410 90411"
"825","Valley Center","San Diego",33.2331,-117.0158,"92082"
"826","East Highlands","San Bernardino",34.1097,-117.1706,"92346"
"827","Channel Islands Beach","Ventura",34.1586,-119.2231,"93035"
"828","Yermo","San Bernardino",34.905,-116.8203,"92398"
"829","Crockett","Contra Costa",38.052,-122.2201,"94525"
"830","San Fernando","Los Angeles",34.2886,-118.4363,"91340 91341"
"831","Camarillo","Ventura",34.223,-119.0325,"93012 93010 93011"
"832","Diamond Springs","El Dorado",38.692,-120.8391,"95667 95623 95619"
"833","Susanville","Lassen",40.4206,-120.6129,"96130 96127"
"834","Delft Colony","Tulare",36.512,-119.4465,"93618"
"835","Kernville","Kern",35.7531,-118.4321,"93238"
"836","Herald","Sacramento",38.2913,-121.2318,"95632 95638"
"837","Solana Beach","San Diego",32.9946,-117.2575,"92075 92014"
"838","Fountain Valley","Orange",33.7105,-117.9514,"92708 92728"
"839","Valley View Park","San Bernardino",34.235,-117.3081,"92325"
"840","Wrightwood","San Bernardino",34.3495,-117.6299,"92397 92329"
"841","Esparto","Yolo",38.6934,-122.0241,"95627"
"842","Honcut","Butte",39.3326,-121.5388,"95966"
"843","Crannell","Humboldt",41.0118,-124.0848,"95570"
"844","Rancho Cordova","Sacramento",38.5739,-121.2521,"95742 95670 95827 95741"
"845","Seeley","Imperial",32.7898,-115.683,"92243 92273"
"846","South San Francisco","San Mateo",37.6537,-122.4197,"94128 94080 94083"
"847","Twin Peaks","San Bernardino",34.2389,-117.2337,"92391"
"848","Del Dios","San Diego",33.0728,-117.1192,"92029"
"849","Victor","San Joaquin",38.1385,-121.1987,"95240 95253"
"850","Lytton","Sonoma",38.6594,-122.8717,"95448"
"851","Humboldt Hill","Humboldt",40.7219,-124.1987,"95503"
"852","Wendel","Lassen",40.3482,-120.2335,"96136"
"853","Richmond","Contra Costa",37.9477,-122.339,"94801 94530 94850 94803 94804 94805 94806 94802 94807 94808"
"854","Guadalupe","Santa Barbara",34.9608,-120.5735,"93434"
"855","Willow Creek","Humboldt",40.9385,-123.6412,"95573"
"856","Tecate","San Diego",32.5773,-116.6275,"91980"
"857","Buena Vista","Amador",38.2974,-120.9179,"95640"
"858","Escalon","San Joaquin",37.7911,-120.9981,"95320"
"859","Belvedere","Marin",37.8735,-122.4662,"94920"
"860","Cotati","Sonoma",38.3278,-122.7092,"94931 94926"
"861","Barstow","San Bernardino",34.8655,-117.0464,"92311 92327"
"862","Downieville","Sierra",39.5701,-120.8213,"95936"
"863","Oro Grande","San Bernardino",34.5989,-117.3342,"92368"
"864","Mexican Colony","Kern",35.4689,-119.2687,"93263"
"865","Squirrel Mountain Valley","Kern",35.6174,-118.4045,"93240"
"866","Shelter Cove","Humboldt",40.0389,-124.0558,"95589"
"867","La Palma","Orange",33.8504,-118.0407,"90623"
"868","Ladera Ranch","Orange",33.5493,-117.6415,"92694"
"869","Hermosa Beach","Los Angeles",33.8654,-118.3966,"90254"
"870","Kennedy","San Joaquin",37.929,-121.2457,"95205 95206"
"871","Shasta Lake","Shasta",40.679,-122.3775,"96019 96003 96079 96089"
"872","Blackhawk","Contra Costa",37.816,-121.9071,"94506"
"873","Willows","Glenn",39.5147,-122.1992,"95988"
"874","California Pines","Modoc",41.4117,-120.6605,"96101"
"875","Greenfield","Monterey",36.3232,-121.245,"93927"
"876","Ocotillo","Imperial",32.7431,-116.002,"92259"
"877","Mi-Wuk Village","Tuolumne",38.057,-120.179,"95346"
"878","Byron","Contra Costa",37.8755,-121.6418,"94514 94513"
"879","Capistrano Beach","Orange",33.4625,-117.6717,"92624"
"880","Rio Oso","Sutter",38.9518,-121.531,"95674"
"881","Madera Acres","Madera",37.0123,-120.0799,"93638"
"882","Redway","Humboldt",40.1209,-123.822,"95560"
"883","Temelec","Sonoma",38.2578,-122.4982,"95476"
"884","Bluewater","San Bernardino",34.176,-114.264,"92242"
"885","Caspar","Mendocino",39.3631,-123.8044,"95460 95420"
"886","Bonita","San Diego",32.6652,-117.0296,"91902"
"887","Point Arena","Mendocino",38.9123,-123.6956,"95468"
"888","Keeler","Inyo",36.4846,-117.872,"93530 93545"
"889","Nord","Butte",39.7739,-121.9549,"95973"
"890","East Hemet","Riverside",33.7301,-116.941,"92544"
"891","Pine Mountain Club","Kern",34.8446,-119.1669,"93222"
"892","Paramount","Los Angeles",33.8976,-118.1651,"90723"
"893","Raymond","Madera",37.2172,-119.9054,"93653"
"894","Smiley Park","San Bernardino",34.1983,-117.1275,"92382"
"895","La Presa","San Diego",32.711,-117.0027,"91977"
"896","Plumas Lake","Yuba",38.9924,-121.558,"95961"
"897","Lake of the Woods","Kern",34.8226,-119.0027,"93225"
"898","Cabazon","Riverside",33.9127,-116.7828,"92230"
"899","Mendocino","Mendocino",39.311,-123.7908,"95460"
"900","Mad River","Trinity",40.432,-123.4924,"95552"
"901","Phillipsville","Humboldt",40.2116,-123.7843,"95559"
"902","Del Rey","Fresno",36.6562,-119.5993,"93616"
"903","Compton","Los Angeles",33.893,-118.2275,"90220 90221 90222 90223"
"904","Anza","Riverside",33.5679,-116.6966,"92539"
"905","Petaluma","Sonoma",38.2423,-122.6267,"94954 94952 94953"
"906","Los Olivos","Santa Barbara",34.6647,-120.118,"93441"
"907","Oak Park","Ventura",34.185,-118.7669,"91377"
"908","San Juan Bautista","San Benito",36.8457,-121.5384,"95045"
"909","Chowchilla","Madera",37.1095,-120.2349,"93610"
"910","Yorba Linda","Orange",33.889,-117.7714,"92886 92887 92885"
"911","Westlake Village","Los Angeles",34.1458,-118.8056,"91361"
"912","Mount Eden","Alameda",37.636,-122.1,"94545"
"913","Salton City","Imperial",33.2995,-115.9609,"92275 92274"
"914","Newhall","Los Angeles",34.3847,-118.5309,"91321"
"915","Dixon","Solano",38.4466,-121.825,"95620"
"916","Loma Linda","San Bernardino",34.0448,-117.2504,"92354 92324 92373 92318 92350 92357"
"917","Geyserville","Sonoma",38.7173,-122.9035,"95441"
"918","Bodfish","Kern",35.5765,-118.4764,"93205"
"919","Pinole","Contra Costa",37.9931,-122.2834,"94564"
"920","Menifee","Riverside",33.6909,-117.1849,"92587 92586 92585 92584 92564"
"921","Hamburg","Siskiyou",41.7829,-123.0603,"96050"
"922","Montecito","Santa Barbara",34.4382,-119.6286,"93108 93150"
"923","San Lorenzo","Alameda",37.6737,-122.1349,"94541 94580"
"924","Terminous","San Joaquin",38.1154,-121.4896,"95242"
"925","Carmel Valley","Monterey",36.4797,-121.7324,"93924"
"926","Oildale","Kern",35.4249,-119.0279,"93308 93388"
"927","San Joaquin","Fresno",36.6056,-120.1898,"93660"
"928","Hickman","Stanislaus",37.6264,-120.7527,"95323"
"929","Greenhorn","Plumas",39.903,-120.759,"95971"
"930","Isla Vista","Santa Barbara",34.4144,-119.8582,"93117 93107"
"931","Home Garden","Kings",36.303,-119.637,"93230"
"932","Talmage","Mendocino",39.1314,-123.1648,"95482 95481"
"933","Hopland","Mendocino",38.9691,-123.1173,"95449"
"934","Oak View","Ventura",34.399,-119.2976,"93022"
"935","Ross","Marin",37.9638,-122.5615,"94960 94904 94957"
"936","Weldon","Kern",35.6431,-118.3103,"93283 93240"
"937","Good Hope","Riverside",33.7706,-117.2772,"92570"
"938","Stonyford","Colusa",39.3703,-122.5445,"95979"
"939","Fairmead","Madera",37.0775,-120.1937,"93610"
"940","Hawthorne","Los Angeles",33.9147,-118.3476,"90250 90251 90261 90310"
"941","Mono City","Mono",38.0412,-119.1467,"93541"
"942","Carpinteria","Santa Barbara",34.3961,-119.5117,"93013 93014"
"943","Lower Lake","Lake",38.9119,-122.6085,"95457"
"944","East Sonora","Tuolumne",37.9776,-120.3409,"95370"
"945","Coleville","Mono",38.5834,-119.516,"96107"
"946","Ripon","San Joaquin",37.7415,-121.1305,"95366"
"947","Redwood City","San Mateo",37.5026,-122.2251,"94065 94062 94063 94061 94064"
"948","Del Rey Oaks","Monterey",36.5929,-121.8381,"93940"
"949","La Ca√±ada Flintridge","Los Angeles",34.2097,-118.2002,"91011 91012"
"950","Boulder Creek","Santa Cruz",37.1341,-122.1271,"95006"
"951","Sierra Brooks","Sierra",39.6427,-120.2155,"96118"
"952","Running Springs","San Bernardino",34.2104,-117.1147,"92382"
"953","Amesti","Santa Cruz",36.958,-121.7804,"95076"
"954","Pineridge","Fresno",37.0633,-119.361,"93602"
"955","Prattville","Plumas",40.206,-121.1575,"95923"
"956","Phelan","San Bernardino",34.4398,-117.5248,"92371"
"957","Eastvale","Riverside",33.9617,-117.5803,"92880 91752"
"958","Callender","San Luis Obispo",35.048,-120.5759,"93420"
"959","Gualala","Mendocino",38.7657,-123.5281,"95445"
"960","Rancho Palos Verdes","Los Angeles",33.7554,-118.3636,"90275"
"961","Selma","Fresno",36.5743,-119.6156,"93662"
"962","Alhambra","Los Angeles",34.084,-118.1355,"91803 91801 91802 91804 91896 91899"
"963","Springville","Tulare",36.1168,-118.8345,"93265"
"964","Mount Hebron","Siskiyou",41.7855,-122.0083,"96058"
"965","Escondido","San Diego",33.1349,-117.0721,"92029 92025 92026 92027 92030 92033 92046"
"966","Alto","Marin",37.9056,-122.5186,"94941"
"967","Penn Valley","Nevada",39.1954,-121.1942,"95946"
"968","Carmel-by-the-Sea","Monterey",36.5528,-121.9222,"93923 93921"
"969","East Rancho Dominguez","Los Angeles",33.895,-118.1955,"90221"
"970","Greenbrae","Marin",37.9485,-122.5247,"94904"
"971","Aromas","San Benito",36.8771,-121.6404,"95004"
"972","Ventura","Ventura",34.2783,-119.2932,"93001"
"973","Searles Valley","San Bernardino",35.7701,-117.3967,"93562"
"974","Parkway","Sacramento",38.4994,-121.4519,"95823 94206"
"975","Daggett","San Bernardino",34.8633,-116.8881,"92327"
"976","Seacliff","Santa Cruz",36.977,-121.9176,"95003"
"977","Woodville","Tulare",36.0898,-119.205,"93274 93257"
"978","Inyokern","Kern",35.6546,-117.8213,"93527"
"979","Woodcrest","Riverside",33.879,-117.3687,"92508 92503 92504 92506"
"980","Morgan Hill","Santa Clara",37.1324,-121.641,"95037"
"981","Bermuda Dunes","Riverside",33.7434,-116.2873,"92203"
"982","Cedarpines Park","San Bernardino",34.25,-117.3259,"92322"
"983","Laguna Hills","Orange",33.592,-117.6992,"92653"
"984","Nipomo","San Luis Obispo",35.0323,-120.499,"93444"
"985","Mountain Center","Riverside",33.7112,-116.7248,"92561"
"986","Monson","Tulare",36.4928,-119.3358,"93618"
"987","Muscoy","San Bernardino",34.1548,-117.3482,"92407"
"988","Orosi","Tulare",36.5434,-119.2903,"93647"
"989","Calpella","Mendocino",39.2322,-123.197,"95482"
"990","Westport","Mendocino",39.6357,-123.7831,"95488"
"991","Markleeville","Alpine",38.684,-119.8225,"96120"
"992","Del Monte Forest","Monterey",36.5857,-121.9439,"93953"
"993","Edgewood","Siskiyou",41.4621,-122.4259,"96094"
"994","Yountville","Napa",38.3956,-122.3669,"94599"
"995","Bombay Beach","Imperial",33.3549,-115.7306,"92257"
"996","Jamacha Junction","San Diego",32.7398,-116.9434,"92019"
"997","Cudahy","Los Angeles",33.9631,-118.183,"90201"
"998","Sugarloaf Saw Mill","Tulare",35.8345,-118.6167,"93260"
"999","Allendale","Solano",38.4426,-121.9814,"95688"
"1000","La Vina","Madera",36.8798,-120.1147,"93637"
"1001","Rio Linda","Sacramento",38.6875,-121.4417,"95673"
"1002","Gorman","Los Angeles",34.7961,-118.8526,"93243"
"1003","Drytown","Amador",38.4382,-120.8565,"95699"
"1004","East Los Angeles","Los Angeles",34.0326,-118.1691,"90063 90022 90023"
"1005","Ivanhoe","Tulare",36.3886,-119.2202,"93235"
"1006","Callahan","Siskiyou",41.3096,-122.8014,"96014"
"1007","Colfax","Placer",39.0938,-120.9533,"95713"
"1008","Lennox","Los Angeles",33.938,-118.3585,"90304"
"1009","Gridley","Butte",39.3622,-121.6972,"95948"
"1010","Bass Lake","Madera",37.328,-119.5665,"93604"
"1011","Terra Linda","Marin",38.0041,-122.5497,"94903"
"1012","Johannesburg","Kern",35.3718,-117.642,"93528"
"1013","Skyforest","San Bernardino",34.2353,-117.1792,"92385"
"1014","Douglas City","Trinity",40.6636,-122.9261,"96024"
"1015","Lucas Valley","Marin",38.0274,-122.5583,"94903"
"1016","El Cerrito","Contra Costa",37.9197,-122.3025,"94530"
"1017","Dublin","Alameda",37.7161,-121.8962,"94568 94551"
"1018","Cotton Center","Tulare",36.0661,-119.1429,"93257"
"1019","Lake Hughes","Los Angeles",34.6833,-118.4589,"93532"
"1020","Paxton","Plumas",40.0334,-121.003,"95971"
"1021","Santa Clarita","Los Angeles",34.4119,-118.5036,"91351 91321 91350 91355 91354 91387 91322 91382 91385 91386"
"1022","Keene","Kern",35.233,-118.6103,"93531"
"1023","Helm","Fresno",36.5316,-120.0982,"93660"
"1024","Huron","Fresno",36.204,-120.0961,"93234"
"1025","Manteca","San Joaquin",37.7938,-121.2271,"95337 95336"
"1026","Randsburg","Kern",35.368,-117.6607,"93554"
"1027","Vineyard","Sacramento",38.4744,-121.319,"95830 95829"
"1028","Highlands","San Mateo",37.5199,-122.3439,"94402"
"1029","San Francisco","San Francisco",37.7561,-122.4429,"94130 94131 94132 94133 94134 94108 94103 94102 94105 94104 94158 94124 94123 94122 94121 94129 94110 94118 94112 94116 94117 94114 94115 94111 94109 94107 94127 94119 94120 94125 94126 94137 94139 94140 94141 94142 94143 94144 94145 94146 94147 94151 94159 94160 94161 94163 94164 94172 94177 94188"
"1030","Kilkare Woods","Alameda",37.6283,-121.9122,"94586"
"1031","Valley Ranch","Plumas",39.7403,-120.5649,"96106"
"1032","Woodside","San Mateo",37.4221,-122.259,"94062"
"1033","Saticoy","Ventura",34.2819,-119.1453,"93004"
"1034","Cambria","San Luis Obispo",35.5523,-121.0847,"93428"
"1035","Harbison Canyon","San Diego",32.8273,-116.8381,"92021 92019 91901"
"1036","Alturas","Modoc",41.4911,-120.5491,"96101"
"1037","San Quentin","Marin",37.9413,-122.485,"94964"
"1038","Rancho Murieta","Sacramento",38.5085,-121.0716,"95683"
"1039","Idlewild","Tulare",35.8096,-118.6704,"93260"
"1040","Bridgeport","Mono",38.2562,-119.2123,"93517"
"1041","Tustin","Orange",33.7309,-117.8106,"92780 92782 92606 92781"
"1042","Somis","Ventura",34.2572,-118.9962,"93066"
"1043","Alpine Village","Alpine",38.7856,-119.8009,"96120"
"1044","Fulton","Sonoma",38.4937,-122.7734,"95439"
"1045","Strathmore","Tulare",36.1438,-119.0612,"93267"
"1046","Spring Valley","San Diego",32.7316,-116.9766,"91977 91978 91979"
"1047","Rossmoor","Orange",33.7886,-118.0803,"90720"
"1048","South Oroville","Butte",39.4786,-121.5441,"95966"
"1049","Clyde","Contra Costa",38.0255,-122.028,"94520"
"1050","Shasta","Shasta",40.591,-122.4798,"96001 96087"
"1051","Santa Ana","Orange",33.7366,-117.8819,"92705 92707 92701 92703 92704 92706 92702 92712 92735 92799"
"1052","Lookout","Modoc",41.2099,-121.1544,"96054"
"1053","Blocksburg","Humboldt",40.276,-123.6364,"95514"
"1054","Robbins","Sutter",38.8672,-121.7055,"95645"
"1055","Woodfords","Alpine",38.7777,-119.8218,"96120"
"1056","Saugus","Los Angeles",34.4114,-118.5401,"91350"
"1057","Diablo","Contra Costa",37.8408,-121.9565,"94528 94506"
"1058","North Fair Oaks","San Mateo",37.4754,-122.2035,"94025 94063"
"1059","Home Gardens","Riverside",33.8782,-117.5114,"92503 92879"
"1060","Princeton","Colusa",39.4029,-122.0212,"95970"
"1061","Ballard","Santa Barbara",34.634,-120.1156,"93463"
"1062","Lakehead","Shasta",40.9007,-122.3924,"96051"
"1063","Fairfax","Marin",37.9884,-122.595,"94930 94978"
"1064","Moreno Valley","Riverside",33.9244,-117.2045,"92553 92555 92557 92551 92552 92554 92556"
"1065","Garnet","Riverside",33.9179,-116.4796,"92240 92241"
"1066","Downey","Los Angeles",33.9379,-118.1312,"90242 90240 90241 90239"
"1067","Trabuco Canyon","Orange",33.6625,-117.5903,"92678"
"1068","Healdsburg","Sonoma",38.6229,-122.8651,"95448"
"1069","Oakley","Contra Costa",37.9929,-121.6951,"94561"
"1070","Armona","Kings",36.3179,-119.7054,"93202 93230"
"1071","Viola","Shasta",40.5179,-121.6778,"96088"
"1072","San Clemente","Orange",33.4498,-117.6103,"92672 92673 92674"
"1073","Half Moon Bay","San Mateo",37.4687,-122.4383,"94019"
"1074","Ingot","Shasta",40.7277,-122.0792,"96008"
"1075","Mill Valley","Marin",37.9085,-122.5421,"94941 94942"
"1076","Hemet","Riverside",33.7352,-116.9946,"92545 92543 92546"
"1077","Le Grand","Merced",37.2288,-120.254,"95333"
"1078","Alta Loma","San Bernardino",34.1222,-117.5981,"91701"
"1079","Hanford","Kings",36.326,-119.6539,"93230"
"1080","Redwood Valley","Mendocino",39.269,-123.2023,"95470"
"1081","O'Neals","Madera",37.1283,-119.6943,"93645"
"1082","Glendale","Los Angeles",34.1818,-118.2468,"91210 91214 91046 91201 91204 91206 91208 91203 91202 91205 91207 91020 91209 91221 91222 91224 91225 91226"
"1083","Day Valley","Santa Cruz",37.0255,-121.8559,"95076 95003"
"1084","Woodbridge","San Joaquin",38.1692,-121.3113,"95258 95241"
"1085","Blue Lake","Humboldt",40.8813,-123.9931,"95525"
"1086","East Whittier","Los Angeles",33.9244,-117.9887,"90604"
"1087","Cherryland","Alameda",37.6792,-122.1038,"94541"
"1088","Los Berros","San Luis Obispo",35.0809,-120.545,"93420"
"1089","Sunol","Alameda",37.589,-121.8863,"94586"
"1090","Mission Canyon","Santa Barbara",34.4533,-119.7126,"93105"
"1091","Lanare","Fresno",36.4377,-119.9322,"93656"
"1092","Albany","Alameda",37.8898,-122.3018,"94706"
"1093","Honeydew","Humboldt",40.2443,-124.1228,"95558"
"1094","Potter Valley","Mendocino",39.319,-123.1123,"95469"
"1095","Walnut Heights","Contra Costa",37.8766,-122.0511,"94507"
"1096","Big Bar","Trinity",40.741,-123.2559,"96010"
"1097","Lockeford","San Joaquin",38.1509,-121.1554,"95240 95237"
"1098","West Sacramento","Yolo",38.5556,-121.5504,"95605 95691 95798 95799 95899"
"1099","Patton Village","Lassen",40.1401,-120.1778,"96113"
"1100","Loma Rica","Yuba",39.3204,-121.4038,"95901"
"1101","Camanche Village","Amador",38.2662,-120.9866,"95640"
"1102","Rancho Tehama Reserve","Tehama",40.001,-122.4418,"96021"
"1103","Mesa Grande","San Diego",33.1803,-116.7692,"92070"
"1104","Yankee Hill","Butte",39.7007,-121.5147,"95965"
"1105","Monte Rio","Sonoma",38.4684,-123.0147,"95462 95486"
"1106","Live Oak","Sutter",39.2788,-121.6624,"95953"
"1107","South Lake","Kern",35.6369,-118.367,"93240"
"1108","Berkeley","Alameda",37.8723,-122.276,"94708 94707 94705 94704 94703 94702 94709 94710 94720 94701 94712"
"1109","Marina","Monterey",36.6812,-121.7894,"93933"
"1110","Lake of the Pines","Nevada",39.0378,-121.0642,"95602"
"1111","Los Altos Hills","Santa Clara",37.3672,-122.1391,"94022 94024"
"1112","Little River","Mendocino",39.2703,-123.7817,"95456 95460"
"1113","Chualar","Monterey",36.5711,-121.5103,"93925"
"1114","Artois","Glenn",39.6332,-122.1898,"95963 95988"
"1115","Bonsall","San Diego",33.2761,-117.1942,"92003 92084"
"1116","Emerald Lake Hills","San Mateo",37.4662,-122.2674,"94062"
"1117","Sisquoc","Santa Barbara",34.8621,-120.2943,"93454"
"1118","Almanor","Plumas",40.2146,-121.1762,"95923"
"1119","Alta","Placer",39.2138,-120.8033,"95701"
"1120","Dillon Beach","Marin",38.2436,-122.956,"94929 94971"
"1121","Alderpoint","Humboldt",40.1614,-123.6157,"95511"
"1122","Balance Rock","Tulare",35.8061,-118.652,"93260"
"1123","Samoa","Humboldt",40.8146,-124.1893,"95564"
"1124","Salida","Stanislaus",37.7154,-121.0866,"95368 95358 95356"
"1125","Bradley","Monterey",35.8628,-120.8041,"93426"
"1126","San Luis Obispo","San Luis Obispo",35.2671,-120.6689,"93401 93405 93403 93406"
"1127","Stevinson","Merced",37.3247,-120.8497,"95374"
"1128","Pearsonville","Inyo",35.8188,-117.8755,"93527"
"1129","El Dorado Hills","El Dorado",38.6723,-121.047,"95682 95672 95762"
"1130","Warner Springs","San Diego",33.2823,-116.6336,"92086"
"1131","Napa","Napa",38.2982,-122.3011,"94558 94559 94581"
"1132","Baldwin Park","Los Angeles",34.0829,-117.972,"91706"
"1133","Forest Ranch","Butte",39.8952,-121.6705,"95942"
"1134","Bethel Island","Contra Costa",38.0289,-121.6405,"94511"
"1135","Citrus","Los Angeles",34.1161,-117.889,"91722 91702"
"1136","Fernbrook","San Diego",32.9681,-116.9117,"92065"
"1137","Tuttle","Merced",37.2965,-120.3789,"95340 95341"
"1138","Castella","Shasta",41.1385,-122.3178,"96017"
"1139","Winters","Yolo",38.532,-121.9781,"95694"
"1140","Benton","Mono",37.8189,-118.4844,"93512 93514"
"1141","Birds Landing","Solano",38.1327,-121.8708,"94512"
"1142","Mentone","San Bernardino",34.0607,-117.1113,"92359 92374"
"1143","Los Nietos","Los Angeles",33.9683,-118.0706,"90606"
"1144","Las Cruces","Santa Barbara",34.508,-120.229,"93117"
"1145","Davis","Yolo",38.5552,-121.7365,"95618 95616 95617"
"1146","Westwood","Lassen",40.3049,-121.0045,"96137"
"1147","Alondra Park","Los Angeles",33.8885,-118.335,"90249 90260 90506"
"1148","Glenn","Glenn",39.5218,-122.0139,"95943"
"1149","La Habra","Orange",33.9278,-117.9513,"90631 90632 90633"
"1150","Lafayette","Contra Costa",37.8919,-122.1188,"94549"
"1151","Taft Heights","Kern",35.1337,-119.4711,"93268"
"1152","Rancho Cucamonga","San Bernardino",34.1246,-117.5662,"91737 91701 91730 91739 91729"
"1153","Elk","Mendocino",39.1302,-123.7178,"95432"
"1154","Mission Hills","Santa Barbara",34.6861,-120.4406,"93436"
"1155","Lake Los Angeles","Los Angeles",34.6097,-117.8339,"93535 93591"
"1156","Indian Wells","Riverside",33.7036,-116.3396,"92210"
"1157","San Simeon","San Luis Obispo",35.6183,-121.1374,"93452"
"1158","San Augustine","Santa Barbara",34.4594,-120.3582,"93117"
"1159","Ruth","Trinity",40.2943,-123.3483,"95552"
"1160","Shively","Humboldt",40.4307,-123.9698,"95565"
"1161","Riverview Farms","San Diego",32.845,-116.932,"92040"
"1162","Corralitos","Santa Cruz",36.9941,-121.7892,"95076"
"1163","Raisin City","Fresno",36.6033,-119.9092,"93652 93706"
"1164","Castro Valley","Alameda",37.7095,-122.0634,"94546 94552 94578"
"1165","Newport Beach","Orange",33.6151,-117.8669,"92662 92663 92660 92661 92625 92657 92658 92659"
"1166","Gasquet","Del Norte",41.8429,-123.9733,"95543"
"1167","Flournoy","Tehama",39.9284,-122.4461,"96021 96029"
"1168","Hidden Valley Lake","Lake",38.8004,-122.5505,"95461 95467"
"1169","Hilmar","Merced",37.4085,-120.8502,"95324"
"1170","Franklin","Sacramento",38.3675,-121.4616,"95757"
"1171","Bayview","Humboldt",40.7653,-124.1786,"95503"
"1172","Grenada","Siskiyou",41.6406,-122.526,"96038"
"1173","Lewiston","Trinity",40.6969,-122.8225,"96052"
"1174","Cherry Valley","Riverside",33.9797,-116.9694,"92223"
"1175","Bell","Los Angeles",33.9801,-118.1798,"90201 90096"
"1176","Niland","Imperial",33.2387,-115.5146,"92257"
"1177","Goleta","Santa Barbara",34.436,-119.8597,"93117 93118"
"1178","Lakeside","San Diego",32.856,-116.9039,"92021 92040"
"1179","Tahoma","Placer",39.0633,-120.1438,"96142 96141"
"1180","Florence","Los Angeles",33.9745,-118.2481,"90001"
"1181","Cressey","Merced",37.421,-120.6557,"95312 95388"
"1182","Fort Bidwell","Modoc",41.863,-120.1589,"96112"
"1183","Grover Beach","San Luis Obispo",35.1205,-120.6199,"93433 93483"
"1184","Willits","Mendocino",39.405,-123.3494,"95490"
"1185","Linda","Yuba",39.1241,-121.5421,"95961 95901"
"1186","Pebble Beach","Monterey",36.5663,-121.9466,"93953"
"1187","Culver City","Los Angeles",34.0058,-118.3968,"90232 90230 90060 90231 90233"
"1188","Arrowhead Highlands","San Bernardino",34.23,-117.2628,"92325"
"1189","Ramona","San Diego",33.0474,-116.8767,"92065"
"1190","Citrus Heights","Sacramento",38.6948,-121.288,"95621 95610 95611"
"1191","Alpaugh","Tulare",35.8876,-119.4873,"93201"
"1192","Berry Creek","Butte",39.6314,-121.4052,"95916"
"1193","Bowles","Fresno",36.6089,-119.7526,"93725"
"1194","Brookdale","Santa Cruz",37.1058,-122.1106,"95007 95006 95005"
"1195","Stanford","Santa Clara",37.4252,-122.1674,"94305 94309"
"1196","Pismo Beach","San Luis Obispo",35.1492,-120.6506,"93449 93448"
"1197","Riverdale","Fresno",36.4304,-119.867,"93656"
"1198","Edmundson Acres","Kern",35.2273,-118.8233,"93203"
"1199","Taft","Kern",35.1267,-119.4242,"93252 93268"
"1200","Covina","Los Angeles",34.0903,-117.8817,"91724 91722 91723"
"1201","Edna","San Luis Obispo",35.2108,-120.606,"93401"
"1202","Lakeland Village","Riverside",33.6481,-117.3715,"92530"
"1203","Oakland","Alameda",37.7903,-122.2165,"94621 94705 94704 94611 94610 94613 94619 94612 94618 94606 94607 94602 94603 94601 94608 94605 94609 94604 94614 94615 94617 94620 94623 94624 94649 94659 94660 94661 94666"
"1204","Point Reyes Station","Marin",38.0847,-122.8093,"94956"
"1205","West Hollywood","Los Angeles",34.0883,-118.3718,"90069 90046 90048"
"1206","Forest Knolls","Marin",38.0152,-122.6886,"94933"
"1207","Marin City","Marin",37.871,-122.5137,"94965"
"1208","Monte Sereno","Santa Clara",37.2405,-121.9881,"95030"
"1209","Lake City","Modoc",41.646,-120.2255,"96115"
"1210","Caruthers","Fresno",36.5399,-119.845,"93609"
"1211","Coloma","El Dorado",38.8026,-120.8946,"95667 95633 95651"
"1212","Lebec","Kern",34.8449,-118.8992,"93243"
"1213","South San Jose Hills","Los Angeles",34.0123,-117.9041,"91744 91792"
"1214","View Park","Los Angeles",33.9989,-118.3426,"90043"
"1215","Albion","Mendocino",39.2256,-123.7564,"95410"
"1216","Bodega","Sonoma",38.3488,-122.9712,"94922"
"1217","Bryn Mawr","San Bernardino",34.0483,-117.2309,"92354"
"1218","Crafton","San Bernardino",34.0631,-117.1217,"92359"
"1219","Capitola","Santa Cruz",36.9772,-121.9539,"95010"
"1220","South Taft","Kern",35.1293,-119.4575,"93268"
"1221","Topaz","Mono",38.6587,-119.5274,"96133"
"1222","Lake Nacimiento","San Luis Obispo",35.7309,-120.8702,"93446"
"1223","Chico","Butte",39.7568,-121.816,"95973 95926 95928 95927 95929 95976"
"1224","Brisbane","San Mateo",37.6898,-122.4019,"94005"
"1225","Myrtletown","Humboldt",40.7888,-124.1286,"95503 95501"
"1226","Lakeview","Riverside",33.8285,-117.1233,"92567"
"1227","Cantua Creek","Fresno",36.5001,-120.3164,"93608"
"1228","Biggs","Butte",39.4133,-121.7102,"95917"
"1229","Diamond Bar","Los Angeles",33.9992,-117.8161,"91789 91765"
"1230","Casitas Springs","Ventura",34.3714,-119.3065,"93001"
"1231","Winchester","Riverside",33.7146,-117.0769,"92545 92596"
"1232","Garden Grove","Orange",33.7787,-117.9601,"92844 92843 92840 92841 92845 92842 92846"
"1233","Bellflower","Los Angeles",33.888,-118.1271,"90706 90707"
"1234","Toro Canyon","Santa Barbara",34.4235,-119.5568,"93013 93108"
"1235","White Pines","Calaveras",38.266,-120.3408,"95223"
"1236","San Mateo","San Mateo",37.5522,-122.3122,"94404 94401 94402 94403 94497"
"1237","Dobbins","Yuba",39.3657,-121.2127,"95962 95935"
"1238","Mountain House","San Joaquin",37.774,-121.5452,"95391"
"1239","Oceanside","San Diego",33.2247,-117.3083,"92058 92054 92057 92056 92049 92051 92052 92068"
"1240","Clear Creek","Siskiyou",41.7093,-123.4503,"96039"
"1241","San Diego","San Diego",32.8312,-117.1225,"92109 92108 92106 92103 92111 92117 92154 92140 92107 92105 92104 92102 92071 92132 92130 92131 92134 92139 92025 92027 92147 92145 92014 92119 92110 92121 92120 92123 92122 92124 92127 92126 92129 92128 92101 92037 92173 92113 92114 92115 92116 92038 92039 92072 92092 92093 92112 92137 92138 92142 92143 92149 92150 92152 92153 92158 92159 92160 92161 92163 92165 92166 92167 92168 92169 92170 92171 92172 92174 92175 92176 92177 92179 92182 92186 92187 92190 92191 92192 92193 92195 92196 92197 92198 92199"
"1242","Bystrom","Stanislaus",37.6199,-120.9827,"95351"
"1243","Cambrian Park","Santa Clara",37.2563,-121.9289,"95124"
"1244","Palos Verdes Estates","Los Angeles",33.7871,-118.3976,"90274"
"1245","Sea Ranch","Sonoma",38.7165,-123.4527,"95497"
"1246","San Jose","Santa Clara",37.302,-121.8488,"95118 95128 95124 95125 95126 95127 95120 95123 95008 95002 95117 95116 95111 95110 95113 95112 95119 95121 95148 95133 95132 95131 95130 95136 95135 95134 95139 95138 95037 95013 95129 95122 95101 95103 95106 95109 95115 95141 95150 95151 95153 95154 95155 95156 95157 95158 95159 95160 95161 95164 95170 95172 95173 95190 95191 95192 95193 95194 95196"
"1247","Penryn","Placer",38.8478,-121.1699,"95663 95650"
"1248","Freedom","Santa Cruz",36.9403,-121.7963,"95076 95019"
"1249","Clay","Sacramento",38.314,-121.1596,"95638"
"1250","Pescadero","San Mateo",37.2507,-122.3725,"94060"
"1251","Yolo","Yolo",38.7405,-121.8093,"95697 95695"
"1252","Pala","San Diego",33.3617,-117.0696,"92059"
"1253","Calpine","Sierra",39.6633,-120.4436,"96124"
"1254","South Lake Tahoe","El Dorado",38.9393,-119.9828,"96150 96151 96152 96154 96156 96157 96158"
"1255","Carlsbad","San Diego",33.1246,-117.2836,"92008 92009 92011 92010 92013 92018"
"1256","Cardiff-by-the-Sea","San Diego",33.0217,-117.2811,"92007"
"1257","Redlands","San Bernardino",34.0512,-117.171,"92359 92373 92374 92346 92375"
"1258","Prunedale","Monterey",36.8064,-121.6555,"95076 95004 93907"
"1259","Clovis","Fresno",36.8283,-119.6851,"93611 93612 93619 93613 93747"
"1260","Manila","Humboldt",40.8513,-124.1631,"95521"
"1261","Mortmar","Riverside",38.4464,-122.1945,"94558"
"1262","Nice","Lake",39.1266,-122.8525,"95485 95464"
"1263","Leucadia","San Diego",33.0681,-117.3034,"92024"
"1264","Mountain Ranch","Calaveras",38.2509,-120.5119,"95245 95246"
"1265","Camino Tassajara","Contra Costa",37.7909,-121.885,"94506"
"1266","Mountain View","Santa Clara",37.4001,-122.0796,"94040 94041 94043 94039 94042"
"1267","Cedar Glen","San Bernardino",34.2539,-117.1648,"92321"
"1268","Lathrop","San Joaquin",37.8162,-121.3126,"95330 95231"
"1269","Crestline","San Bernardino",34.2486,-117.289,"92391 92322 92325"
"1270","Garden Acres","San Joaquin",37.9637,-121.2296,"95215"
"1271","California Hot Springs","Tulare",35.8863,-118.6561,"93207"
"1272","Truckee","Nevada",39.3455,-120.1848,"96161 96160"
"1273","Monterey","Monterey",36.5922,-121.8807,"93943 93940 93942 93944"
"1274","Requa","Del Norte",41.5468,-124.0665,"95548"
"1275","Pioneer","Amador",38.4355,-120.5848,"95666"
"1276","Sugarloaf Village","Tulare",35.8269,-118.6354,"93260"
"1277","Fuller Acres","Kern",35.3023,-118.9143,"93307"
"1278","Oxnard","Ventura",34.1961,-119.1821,"93035 93036 93030 93033 93031 93032 93034"
"1279","Amboy","San Bernardino",34.5578,-115.7444,"92304"
"1280","Elderwood","Tulare",36.4716,-119.1223,"93286"
"1281","Desert Center","Riverside",33.7378,-115.3666,"92239"
"1282","Dogtown","San Joaquin",38.2096,-121.1551,"95220"
"1283","Kentfield","Marin",37.9481,-122.5498,"94904 94914 94974"
"1284","Broadmoor","San Mateo",37.6914,-122.4811,"94015"
"1285","Manton","Tehama",40.4202,-121.854,"96059"
"1286","Camino","El Dorado",38.7412,-120.6815,"95709"
"1287","Clayton","Contra Costa",37.9403,-121.9301,"94517"
"1288","Lodoga","Colusa",39.3043,-122.506,"95979"
"1289","French Gulch","Shasta",40.7166,-122.6311,"96033 96095"
"1290","Winton","Merced",37.3854,-120.6173,"95388 95344"
"1291","Boyes Hot Springs","Sonoma",38.3126,-122.4888,"95476 95416"
"1292","Woodlake","Tulare",36.4124,-119.0998,"93286"
"1293","Bostonia","San Diego",32.8189,-116.948,"92021"
"1294","Philo","Mendocino",39.0657,-123.4453,"95466 95415"
"1295","Chinese Camp","Tuolumne",37.8703,-120.4443,"95327 95309"
"1296","Villa Park","Orange",33.818,-117.8104,"92861"
"1297","Oakville","Napa",38.4384,-122.4067,"94558"
"1298","River Pines","Amador",38.5454,-120.7475,"95675"
"1299","Ono","Shasta",40.4752,-122.6181,"96047"
"1300","Gazelle","Siskiyou",41.5133,-122.5215,"96034"
"1301","Hamilton City","Glenn",39.7422,-122.0125,"95951"
"1302","Grangeville","Kings",36.344,-119.7075,"93230"
"1303","Mead Valley","Riverside",33.8333,-117.2849,"92570"
"1304","Korbel","Humboldt",40.8704,-123.9584,"95550"
"1305","Redondo Beach","Los Angeles",33.8574,-118.3766,"90278 90277"
"1306","Gonzales","Monterey",36.5061,-121.4429,"93926"
"1307","Orland","Glenn",39.7461,-122.185,"95963"
"1308","Twin Lakes","Santa Cruz",36.9646,-121.9896,"95062"
"1309","Pico Rivera","Los Angeles",33.9902,-118.0888,"90660 90661 90662"
"1310","San Lucas","Monterey",36.1284,-121.0217,"93954"
"1311","Stanton","Orange",33.8002,-117.9935,"90680"
"1312","Thousand Oaks","Ventura",34.1914,-118.8755,"91320 91361 91362 91360 91319 91358 91359"
"1313","Clearlake Oaks","Lake",39.0218,-122.6593,"95423"
"1314","Doyle","Lassen",40.0274,-120.1172,"96109"
"1315","Colton","San Bernardino",34.0538,-117.3254,"92324"
"1316","Bear Creek","Merced",37.2966,-120.4177,"95340"
"1317","Ballico","Merced",37.4519,-120.7037,"95303"
"1318","Shafter","Kern",35.478,-119.1992,"93263 93314"
"1319","Cerritos","Los Angeles",33.8677,-118.0686,"90703"
"1320","Loyalton","Sierra",39.6768,-120.2448,"96118"
"1321","Little Valley","Lassen",40.893,-121.1781,"96056"
"1322","Mountain View Acres","San Bernardino",34.4976,-117.347,"92392"
"1323","Shingle Springs","El Dorado",38.6666,-120.937,"95682"
"1324","Montclair","San Bernardino",34.0714,-117.6981,"91763"
"1325","Smith Corner","Kern",35.4788,-119.2771,"93263"
"1326","Vandenberg Village","Santa Barbara",34.7111,-120.4623,"93436"
"1327","Lexington Hills","Santa Clara",37.1616,-121.9879,"95033 95026 95044"
"1328","Montpelier","Stanislaus",37.5449,-120.706,"95316"
"1329","Ford City","Kern",35.1647,-119.4584,"93268"
"1330","Russell City","Alameda",37.6527,-122.1336,"94545"
"1331","Johnstonville","Lassen",40.3789,-120.5846,"96130"
"1332","Pine Cove","Riverside",33.7606,-116.7378,"92549"
"1333","Port Hueneme","Ventura",34.1617,-119.2036,"93043 93041 93044"
"1334","Harmony","San Luis Obispo",35.5086,-121.0227,"93430"
"1335","Somes Bar","Siskiyou",41.3762,-123.4762,"96031"
"1336","Isleton","Sacramento",38.1617,-121.6051,"95641"
"1337","Paynes Creek","Tehama",40.3409,-121.9175,"96080 96075"
"1338","Scotia","Humboldt",40.4774,-124.1032,"95565"
"1339","Claremont","Los Angeles",34.1259,-117.7153,"91711"
"1340","Fort Dick","Del Norte",41.8663,-124.1526,"95531"
"1341","Chino","San Bernardino",33.9836,-117.6653,"91708 91710"
"1342","Alpine","San Diego",32.8439,-116.7585,"91901 91903"
"1343","Orange Cove","Fresno",36.6211,-119.3188,"93646"
"1344","Valinda","Los Angeles",34.0401,-117.93,"91744"
"1345","Castroville","Monterey",36.765,-121.7535,"95012"
"1346","Coulterville","Mariposa",37.7106,-120.1991,"95311"
"1347","Grass Valley","Nevada",39.2236,-121.0549,"95945"
"1348","Casa de Oro","San Diego",32.7489,-116.9809,"91977"
"1349","Quartz Hill","Los Angeles",34.6527,-118.2163,"93536 93586"
"1350","Kingvale","Nevada",39.3204,-120.4386,"96161"
"1351","Mohawk Vista","Plumas",39.8048,-120.5883,"96103"
"1352","Pine Grove","Amador",38.4074,-120.6606,"95665"
"1353","North Richmond","Contra Costa",37.9642,-122.3711,"94801"
"1354","Ben Lomond","Santa Cruz",37.0782,-122.0882,"95005 95018"
"1355","Forest Meadows","Calaveras",38.1664,-120.4052,"95247"
"1356","Calwa","Fresno",36.7137,-119.7613,"93725"
"1357","Snelling","Merced",37.5215,-120.4387,"95369"
"1358","Loma Mar","San Mateo",37.2658,-122.3007,"94021 94060"
"1359","Top of the World","Orange",33.5484,-117.7542,"92651"
"1360","Placentia","Orange",33.8807,-117.8553,"92870 92811 92871"
"1361","Garberville","Humboldt",40.1003,-123.7948,"95542"
"1362","Placerville","El Dorado",38.7309,-120.7979,"95667"
"1363","Dos Palos Y","Merced",37.0469,-120.6395,"93620"
"1364","Dunlap Acres","San Bernardino",34.0311,-117.1075,"92399"
"1365","Palermo","Butte",39.4313,-121.5225,"95968 95965 95966"
"1366","Lincoln","Placer",38.8749,-121.2943,"95648"
"1367","Yettem","Tulare",36.4866,-119.2547,"93292 93615"
"1368","Atwood","Orange",33.8656,-117.8309,"92870"
"1369","Daphnedale Park","Modoc",41.5089,-120.5507,"96101"
"1370","Myers Flat","Humboldt",40.2666,-123.8737,"95554"
"1371","Anderson","Shasta",40.4509,-122.2961,"96007"
"1372","Auburn","Placer",38.8948,-121.0778,"95603"
"1373","Lawndale","Los Angeles",33.8884,-118.3531,"90260"
"1374","Verdemont","San Bernardino",34.1931,-117.3675,"92407"
"1375","Los Trancos Woods","San Mateo",37.3494,-122.1994,"94028"
"1376","Felton","Santa Cruz",37.0392,-122.0804,"95018"
"1377","Westminster","Orange",33.7523,-117.9938,"92683 92684 92685"
"1378","Calavo Gardens","San Diego",32.7628,-116.9611,"91941"
"1379","Nubieber","Lassen",41.0967,-121.1814,"96068"
"1380","Grossmont","San Diego",32.7784,-116.9884,"91941"
"1381","Patterson","Stanislaus",37.4734,-121.144,"95363"
"1382","Nuevo","Riverside",33.8011,-117.1415,"92567"
"1383","Grand Terrace","San Bernardino",34.0312,-117.3133,"92313"
"1384","Las Lomas","Monterey",36.8688,-121.7317,"95076"
"1385","Mokelumne Hill","Calaveras",38.3057,-120.706,"95245"
"1386","Derby Acres","Kern",35.2439,-119.6039,"93224"
"1387","Lompico","Santa Cruz",37.1101,-122.0523,"95005 95018"
"1388","Big Sur","Monterey",36.2702,-121.8075,"93920"
"1389","Sheridan","Placer",38.969,-121.3559,"95681 95648"
"1390","Blue Canyon","Placer",39.2571,-120.711,"95715"
"1391","Toms Place","Mono",37.5613,-118.6812,"93546"
"1392","Bangor","Butte",39.3761,-121.4117,"95966 95901 95914"
"1393","San Geronimo","Marin",38.0067,-122.6634,"94963"
"1394","Piru","Ventura",34.4076,-118.7999,"93040 93015"
"1395","Piercy","Mendocino",39.9663,-123.7953,"95587"
"1396","Lindsay","Tulare",36.2079,-119.0902,"93247"
"1397","Kings Beach","Placer",39.249,-120.0201,"96143"
"1398","Beverly Hills","Los Angeles",34.0786,-118.4021,"90212 90211 90210 90209"
"1399","Union City","Alameda",37.603,-122.0187,"94587"
"1400","Poso Park","Tulare",35.8112,-118.6358,"93260"
"1401","Cottonwood","Shasta",40.3904,-122.286,"96022"
"1402","Bend","Tehama",40.2561,-122.2095,"96080"
"1403","Angiola","Tulare",35.9891,-119.476,"93212"
"1404","Salyer","Trinity",40.8901,-123.5845,"95563"
"1405","Bishop","Inyo",37.3665,-118.3958,"93514 93515"
"1406","Shoshone","Inyo",35.951,-116.3055,"92384"
"1407","Tonyville","Tulare",36.2474,-119.0903,"93247"
"1408","Flinn Springs","San Diego",32.8551,-116.8525,"92021"
"1409","La Verne","Los Angeles",34.1208,-117.7702,"91750"
"1410","Klamath","Del Norte",41.5324,-124.0074,"95548"
"1411","Kenwood","Sonoma",38.4153,-122.5387,"95452 95442"
"1412","Yucca Valley","San Bernardino",34.1231,-116.4215,"92284"
"1413","Worth","Tulare",36.0525,-118.937,"93257"
"1414","Independence","Inyo",36.8274,-118.2132,"93526"
"1415","Moss Landing","Monterey",36.8019,-121.7872,"95039"
"1416","North Highlands","Sacramento",38.6713,-121.3721,"95660 95841"
"1417","Midpines","Mariposa",37.5531,-119.9485,"95338 95345"
"1418","Big Bear City","San Bernardino",34.2536,-116.7903,"92314 92386"
"1419","Lost Hills","Kern",35.6254,-119.6789,"93249"
"1420","Lucerne Valley","San Bernardino",34.4427,-116.9021,"92356"
"1421","Needles","San Bernardino",34.816,-114.6192,"92363"
"1422","Live Oak Springs","San Diego",32.6906,-116.3345,"91905"
"1423","Coffee Creek","Trinity",41.0802,-122.7136,"96091"
"1424","Stirling City","Butte",39.9065,-121.5361,"95954"
"1425","Keswick","Shasta",40.6134,-122.4606,"96001"
"1426","Carrick","Siskiyou",41.4467,-122.3635,"96094"
"1427","King City","Monterey",36.2165,-121.133,"93930"
"1428","Rimforest","San Bernardino",34.2297,-117.225,"92378"
"1429","Lincoln Acres","San Diego",32.6678,-117.0728,"91950"
"1430","Bodega Bay","Sonoma",38.325,-123.0308,"94923"
"1431","Orick","Humboldt",41.2909,-124.0692,"95555"
"1432","Rancho San Diego","San Diego",32.7624,-116.9197,"92019"
"1433","El Nido","Merced",37.1324,-120.4985,"95317"
"1434","Hydesville","Humboldt",40.5579,-124.0822,"95547"
"1435","Lemon Heights","Orange",33.7589,-117.782,"92705"
"1436","East San Gabriel","Los Angeles",34.1198,-118.0807,"91775"
"1437","Agua Dulce","Los Angeles",34.5044,-118.316,"91390"
"1438","Visalia","Tulare",36.3271,-119.3265,"93277 93291 93292 93278 93279 93290"
"1439","Camden","Fresno",36.4311,-119.7979,"93242"
"1440","Tara Hills","Contra Costa",37.9939,-122.3188,"94806"
"1441","Ridgemark","San Benito",36.8082,-121.3623,"95023"
"1442","Castaic","Los Angeles",34.4818,-118.6316,"91384 91310"
"1443","San Luis Rey","San Diego",33.232,-117.3236,"92058"
"1444","San Leandro","Alameda",37.7071,-122.1601,"94578 94579 94577 94622"
"1445","Larkspur","Marin",37.9394,-122.5313,"94939 94904 94977"
"1446","Banning","Riverside",33.946,-116.8992,"92220"
"1447","Delleker","Plumas",39.8101,-120.4969,"96122"
"1448","Mountain Gate","Shasta",40.7184,-122.3263,"96003"
"1449","Linden","San Joaquin",38.0186,-121.0994,"95236"
"1450","Poway","San Diego",32.9872,-117.0201,"92064 92074"
"1451","Taylorsville","Plumas",40.0587,-120.8386,"95983"
"1452","Bolinas","Marin",37.9177,-122.7095,"94924"
"1453","Tres Pinos","San Benito",36.7904,-121.3105,"95075 95023"
"1454","Westley","Stanislaus",37.5524,-121.2124,"95363"
"1455","Los Angeles","Los Angeles",34.114,-118.4068,"90291 90293 90292 90029 91316 91311 90035 90008 90004 90005 90006 90007 90001 90002 90003 90710 90089 91306 91307 91344 91345 91340 91342 91343 90034 90037 90036 90031 90033 90039 90038 90247 90248 91411 91436 91371 91608 91605 91604 91607 91606 91601 91602 90402 90068 90062 90063 90061 90066 90067 90064 90065 91326 91324 91325 90013 90012 90011 90017 90016 90015 90014 90028 90090 90095 90094 91042 91040 90069 91352 91356 91402 90041 90042 90043 90044 90045 90046 90047 90048 90049 90019 90018 90010 91423 90210 91303 91304 90079 90071 90077 90059 91331 91330 91335 90026 90027 90024 90025 90023 90020 90021 90272 90732 90731 90230 91406 91405 91403 91401 91367 91364 90032 90057 90058 90744 90501 90502 90009 90030 90050 90051 90053 90054 90055 90070 90072 90074 90075 90076 90078 90080 90081 90082 90083 90084 90086 90087 90088 90093 90099 90189 90213 90294 90296 90733 90734 90748 91041 91043 91305 91308 91309 91313 91327 91328 91329 91333 91334 91337 91346 91353 91357 91365 91392 91393 91394 91395 91396 91404 91407 91408 91409 91410 91412 91413 91416 91426 91470 91482 91495 91496 91499 91603 91609 91610 91611 91612 91614 91615 91616 91617 91618"
"1456","Richvale","Butte",39.4937,-121.7507,"95965"
"1457","Santa Paula","Ventura",34.3521,-119.0698,"93060 93061"
"1458","Lake Almanor Country Club","Plumas",40.2578,-121.147,"96137"
"1459","Campo","San Diego",32.6394,-116.4744,"91906"
"1460","Big Creek","Fresno",37.2035,-119.2486,"93605"
"1461","Moreno","Riverside",33.9175,-117.1578,"92555"
"1462","Round Valley","Inyo",37.4067,-118.5819,"93514"
"1463","Sky Valley","Riverside",33.8912,-116.3551,"92241"
"1464","Dinuba","Tulare",36.5453,-119.3989,"93618"
"1465","Berenda","Madera",37.0402,-120.1535,"93638"
"1466","Modesto","Stanislaus",37.6371,-121.003,"95358 95356 95355 95354 95351 95350 95352 95353 95397"
"1467","East Quincy","Plumas",39.9165,-120.9189,"95971"
"1468","La Mirada","Los Angeles",33.9025,-118.0093,"90638 90637 90639"
"1469","Ione","Amador",38.3612,-120.9422,"95640"
"1470","Rio Vista","Solano",38.1762,-121.7034,"94571"
"1471","Alum Rock","Santa Clara",37.3694,-121.824,"95127"
"1472","Santa Clara","Santa Clara",37.3646,-121.9679,"95054 95050 95051 95053 95052 95055 95056"
"1473","Pajaro","Monterey",36.9016,-121.7417,"95076"
"1474","Blue Jay","San Bernardino",34.2461,-117.2098,"92352"
"1475","Cutten","Humboldt",40.7657,-124.1446,"95503"
"1476","Monmouth","Fresno",36.5656,-119.7405,"93725"
"1477","Inverness","Marin",38.0821,-122.8471,"94937 94956"
"1478","Penngrove","Sonoma",38.3005,-122.6707,"94951"
"1479","El Verano","Sonoma",38.2975,-122.4915,"95476 95433"
"1480","Dana Point","Orange",33.4733,-117.6969,"92629 92624"
"1481","Squaw Valley","Fresno",36.6944,-119.2,"93675 93646"
"1482","Perris","Riverside",33.7897,-117.2233,"92570 92571 92585 92572 92599"
"1483","Paicines","San Benito",36.7286,-121.2785,"95043"
"1484","Rohnert Park","Sonoma",38.348,-122.6964,"94928 94927"
"1485","Altadena","Los Angeles",34.1934,-118.1355,"91104 91001 91003"
"1486","Twain Harte","Tuolumne",38.0384,-120.234,"95370 95383"
"1487","Midway City","Orange",33.7451,-117.9849,"92655"
"1488","Livingston","Merced",37.3875,-120.7249,"95334"
"1489","Lindcove","Tulare",36.3595,-119.0721,"93221"
"1490","Antelope","Sacramento",38.7153,-121.361,"95843"
"1491","Foothill Farms","Sacramento",38.6867,-121.3475,"95842 95841"
"1492","Glamis","Imperial",32.9975,-115.0719,"92227"
"1493","East Pasadena","Los Angeles",34.1377,-118.0776,"91107"
"1494","Martinez","Contra Costa",37.9985,-122.116,"94553"
"1495","Shaver Lake","Fresno",37.0971,-119.3245,"93664"
"1496","Alleghany","Sierra",39.4666,-120.841,"95910"
"1497","Inglewood","Los Angeles",33.9566,-118.3444,"90305 90304 90303 90302 90301 90306 90307 90308 90309 90311 90312"
"1498","Imperial","Imperial",32.8375,-115.5719,"92251"
"1499","Fort Irwin","San Bernardino",35.2476,-116.6834,"92310"
"1500","Lone Pine","Inyo",36.5774,-118.0777,"93545"
"1501","Smith River","Del Norte",41.9249,-124.1494,"95567"
"1502","San Ramon","Contra Costa",37.7625,-121.9366,"94582 94583"
"1503","Canyon Lake","Riverside",33.6884,-117.2621,"92587"
"1504","Coalinga","Fresno",36.1432,-120.3268,"93210"
"1505","Tipton","Tulare",36.0585,-119.313,"93272"
"1506","Carmet","Sonoma",38.3743,-123.0721,"94923"
"1507","Tehachapi","Kern",35.127,-118.4751,"93561 93581"
"1508","Solvang","Santa Barbara",34.5936,-120.1401,"93463"
"1509","Cedar Ridge","Tuolumne",38.0661,-120.2737,"95370"
"1510","Platina","Shasta",40.3596,-122.8947,"96076"
"1511","Dos Palos","Merced",36.9854,-120.6337,"93620"
"1512","Grimes","Colusa",39.0741,-121.8988,"95950"
"1513","Arden Town","Sacramento",38.5741,-121.383,"95864"
"1514","La Puente","Los Angeles",34.0323,-117.9533,"91746 91744 91747 91749"
"1515","Romoland","Riverside",33.7648,-117.1572,"92585"
"1516","Volta","Merced",37.0875,-120.9235,"93635"
"1517","Weimar","Placer",39.0374,-120.9724,"95713"
"1518","Jenner","Sonoma",38.4511,-123.1204,"95450 95465"
"1519","Farmersville","Tulare",36.3054,-119.2082,"93223"
"1520","Graton","Sonoma",38.4376,-122.866,"95444 95472"
"1521","Bloomington","San Bernardino",34.0604,-117.4015,"92316"
"1522","Plumas Eureka","Plumas",39.7982,-120.6645,"96103"
"1523","South El Monte","Los Angeles",34.0493,-118.0484,"91733"
"1524","Milford","Lassen",40.1634,-120.3686,"96121"
"1525","Corcoran","Kings",36.0847,-119.5612,"93212"
"1526","Laton","Fresno",36.4338,-119.6916,"93242"
"1527","Fruitdale","Santa Clara",37.312,-121.9355,"95128"
"1528","Littlerock","Los Angeles",34.5232,-117.9809,"93543"
"1529","Coarsegold","Madera",37.2526,-119.7,"93614"
"1530","Verdi","Sierra",39.5237,-120.0163,"89439 96111"
"1531","Fiddletown","Amador",38.5091,-120.7605,"95685 95629"
"1532","Lincoln Village","San Joaquin",38.0054,-121.334,"95207"
"1533","Agoura Hills","Los Angeles",34.151,-118.7608,"91301 91376"
"1534","Tomales","Marin",38.247,-122.9054,"94971"
"1535","Collierville","San Joaquin",38.2141,-121.2675,"95632 95220"
"1536","Ducor","Tulare",35.8943,-119.0456,"93218"
"1537","Buck Meadows","Mariposa",37.8127,-120.0653,"95321"
"1538","Volcano","Amador",38.4456,-120.6306,"95665 95689"
"1539","City Terrace","Los Angeles",34.05,-118.1828,"90063"
"1540","Soledad","Monterey",36.4434,-121.3432,"93960"
"1541","Durham","Butte",39.6232,-121.7874,"95965 95928 95938 95958"
"1542","Betteravia","Santa Barbara",34.9178,-120.5149,"93458"
"1543","Trinity Village","Trinity",40.8789,-123.5133,"95527 95563"
"1544","Lemoncove","Tulare",36.3827,-119.0245,"93244"
"1545","Cobb","Lake",38.8356,-122.7229,"95426"
"1546","Portola","Plumas",39.8241,-120.4732,"96122"
"1547","Sierra City","Sierra",39.574,-120.6297,"96125"
"1548","Acton","Los Angeles",34.4956,-118.1858,"93510"
"1549","Seville","Tulare",36.4856,-119.2247,"93292 93670"
"1550","Meridian","Sutter",39.1404,-121.9079,"95957"
"1551","Roseland","Sonoma",38.4216,-122.7297,"95407"
"1552","Newell","Modoc",41.8898,-121.3675,"96134"
"1553","Calimesa","Riverside",33.9873,-117.0542,"92223 92320"
"1554","Clipper Mills","Butte",39.5324,-121.1666,"95941 95930"
"1555","Baker","San Bernardino",35.2769,-116.0717,"92309"
"1556","Atascadero","San Luis Obispo",35.4827,-120.6858,"93422 93423"
"1557","Herlong","Lassen",40.1419,-120.1398,"96113"
"1558","Chester","Plumas",40.3017,-121.2339,"96020"
"1559","Wawona","Mariposa",37.5482,-119.6396,"95389"
"1560","Brownsville","Yuba",39.4732,-121.2691,"95919"
"1561","Galt","Sacramento",38.2671,-121.3034,"95632"
"1562","Belltown","Riverside",34.0117,-117.3834,"92509"
"1563","Joshua Tree","San Bernardino",34.1225,-116.3136,"92252"
"1564","Arroyo Grande","San Luis Obispo",35.1243,-120.5849,"93420 93421"
"1565","California City","Kern",35.1578,-117.872,"93505 93504"
"1566","Danville","Contra Costa",37.8121,-121.9698,"94526 94506"
"1567","Happy Camp","Siskiyou",41.8103,-123.3892,"96039 96049"
"1568","Oroville","Butte",39.5,-121.5647,"95965 95966 95940"
"1569","Huntington Beach","Orange",33.696,-118.0023,"92649 92646 92647 92648 90742 92605 92615"
"1570","Opal Cliffs","Santa Cruz",36.9608,-121.9641,"95062"
"1571","Altaville","Calaveras",38.0838,-120.5619,"95222"
"1572","Tobin","Plumas",39.9361,-121.2959,"95915"
"1573","Wallace","Calaveras",38.1978,-120.9586,"95254"
"1574","Cornell","Los Angeles",34.1145,-118.7779,"91301"
"1575","Greenville","Plumas",40.1336,-120.9454,"95947"
"1576","San Pablo","Contra Costa",37.9629,-122.3425,"94806"
"1577","Seal Beach","Orange",33.7542,-118.0714,"92649 90743 90740"
"1578","Tulare","Tulare",36.1996,-119.34,"93274 93275"
"1579","Summerland","Santa Barbara",34.4255,-119.5893,"93013 93067 93108"
"1580","Anchor Bay","Mendocino",38.8126,-123.5704,"95445"
"1581","Auburn Lake Trails","El Dorado",38.8916,-120.9849,"95614"
"1582","Rancho Mirage","Riverside",33.7625,-116.4273,"92270"
"1583","McFarland","Kern",35.6781,-119.2414,"93250"
"1584","Etna","Siskiyou",41.4582,-122.8947,"96027"
"1585","Arbuckle","Colusa",39.0141,-122.061,"95912"
"1586","Las Flores","Tehama",40.0722,-122.1573,"96035"
"1587","Lake Forest","Orange",33.6606,-117.6712,"92610 92679 92630"
"1588","Rosedale","Kern",35.3888,-119.2054,"93314"
"1589","Mira Monte","Ventura",34.4284,-119.2853,"93023 93022"
"1590","Highland","San Bernardino",34.1113,-117.1653,"92359 92410 92346 92369"
"1591","Pilot Hill","El Dorado",38.8349,-121.0144,"95664"
"1592","Hayfork","Trinity",40.561,-123.1299,"96041"
"1593","Sonoma","Sonoma",38.2902,-122.4598,"95476"
"1594","Trabuco Highlands","Orange",33.6147,-117.5664,"92679"
"1595","Kingsburg","Fresno",36.5241,-119.5608,"93631"
"1596","Rancho Rinconada","Santa Clara",37.3149,-122.003,"95014"
"1597","Silver City","Tulare",36.4638,-118.6508,"93271"
"1598","Los Molinos","Tehama",40.027,-122.0981,"96055"
"1599","Tehama","Tehama",40.0218,-122.1269,"96090"
"1600","Otay","San Diego",32.5948,-117.0645,"91911"
"1601","Avenal","Kings",36.0312,-120.116,"93204 93239"
"1602","Kaweah","Tulare",36.4697,-118.9184,"93271"
"1603","Fellows","Kern",35.178,-119.5472,"93224"
"1604","East Foothills","Santa Clara",37.3826,-121.8137,"95127"
"1605","Morro Bay","San Luis Obispo",35.3681,-120.8481,"93442 93443"
"1606","Darwin","Inyo",36.2688,-117.589,"93522"
"1607","Stallion Springs","Kern",35.0935,-118.6477,"93561"
"1608","New Cuyama","Santa Barbara",34.9422,-119.6808,"93254"
"1609","Likely","Modoc",41.2254,-120.5033,"96116"
"1610","Sespe","Ventura",34.4,-118.9504,"93015"
"1611","Boron","Kern",35.0164,-117.6659,"93516 93596"
"1612","Hayward","Alameda",37.6327,-122.0776,"94541 94542 94545 94544 94540 94543 94557"
"1613","French Camp","San Joaquin",37.8799,-121.2803,"95231"
"1614","Ferndale","Humboldt",40.5799,-124.2619,"95536"
"1615","Rowland Heights","Los Angeles",33.9716,-117.8911,"91748 91789"
"1616","Yuba City","Sutter",39.1357,-121.6381,"95991 95993"
"1617","Lynwood Hills","San Diego",32.6453,-117.0517,"91910"
"1618","West Bishop","Inyo",37.3571,-118.4543,"93514"
"1619","Guinda","Yolo",38.8274,-122.1985,"95637"
"1620","Novato","Marin",38.092,-122.5576,"94949 94945 94947 94998"
"1621","Sierraville","Sierra",39.575,-120.3638,"96126"
"1622","Olancha","Inyo",36.2704,-118.0015,"93549"
"1623","La Mesa","San Diego",32.7703,-117.0203,"91941 91942 91943 91944"
"1624","Montebello","Los Angeles",34.0155,-118.1107,"90640"
"1625","Canyondam","Plumas",40.1699,-121.0767,"95923 96137"
